{"type":"FeatureCollection","features":[{"type":"Feature","properties":{"POSTCODE":"01605","PC_NAME":"WORCESTER","PC_TYPE":"NON UNIQUE","PA_NAME":"WORCESTER","PA_FIPS":"82000","CITY_TOWN":"WORCESTER","COUNTY":"WORCESTER","AREA_SQMI":6.02581551,"SHAPE_AREA":15606790.5368,"SHAPE_LEN":31918.4162223},"geometry":{"type":"Polygon","coordinates":[[[-71.7682907,42.3107913],[-71.7722807,42.3093813],[-71.7740107,42.3118413],[-71.7742507,42.3121813],[-71.7733407,42.3126013],[-71.7737907,42.3128613],[-71.7746607,42.3124613],[-71.7748713,42.3123624],[-71.7756607,42.3119913],[-71.7758107,42.3119213],[-71.7763007,42.3117113],[-71.7765307,42.3116213],[-71.7768107,42.3115313],[-71.7771407,42.3114613],[-71.7774507,42.3114213],[-71.7775207,42.3114113],[-71.7779607,42.3113813],[-71.7784007,42.3113713],[-71.7789207,42.3113813],[-71.7757307,42.3074813],[-71.7775479,42.3070534],[-71.7786607,42.3067913],[-71.7778507,42.3057013],[-71.7769707,42.3044813],[-71.7762907,42.3035513],[-71.7762207,42.3034913],[-71.7759309,42.3027133],[-71.7759701,42.3026747],[-71.776121,42.302532],[-71.7763518,42.3023762],[-71.7764109,42.3023631],[-71.7765779,42.3023462],[-71.7767569,42.3023449],[-71.7768178,42.3023433],[-71.7768635,42.3023403],[-71.7771787,42.3023695],[-71.7778383,42.3023989],[-71.7778676,42.3023899],[-71.7783773,42.3023867],[-71.778408,42.3023947],[-71.7784308,42.3023965],[-71.7786283,42.3024322],[-71.7788173,42.3024865],[-71.7788442,42.3024942],[-71.7789652,42.3025375],[-71.7790412,42.3025704],[-71.7791122,42.3025402],[-71.7793068,42.3024531],[-71.7795798,42.3022925],[-71.7797249,42.3021684],[-71.7797781,42.3021229],[-71.7798373,42.302076],[-71.7799546,42.3019901],[-71.7800414,42.3019264],[-71.7801361,42.3025289],[-71.7802307,42.3031314],[-71.7805279,42.303001],[-71.7805757,42.3029364],[-71.7808732,42.3025339],[-71.7811707,42.3021314],[-71.7812467,42.3020284],[-71.7822098,42.3021553],[-71.7832506,42.3014814],[-71.7841606,42.3011914],[-71.7848806,42.3009114],[-71.7844906,42.3003714],[-71.7844708,42.3002436],[-71.7845788,42.2997887],[-71.7842045,42.2991754],[-71.7841626,42.2990811],[-71.784099,42.2989378],[-71.7840506,42.2988426],[-71.7839592,42.2986847],[-71.7838856,42.2980967],[-71.7839339,42.2975656],[-71.7839367,42.2975165],[-71.7840594,42.297091],[-71.7843299,42.2965916],[-71.7843876,42.2966048],[-71.7845291,42.2966371],[-71.7846922,42.2966895],[-71.7847921,42.2967313],[-71.7849293,42.2967887],[-71.7851739,42.2968562],[-71.7852512,42.2968673],[-71.7853257,42.2968812],[-71.7861097,42.2970772],[-71.7862544,42.2969795],[-71.7864396,42.2968544],[-71.7865232,42.2968037],[-71.7866294,42.2967463],[-71.7868498,42.296627],[-71.7869974,42.2965619],[-71.7872144,42.2964864],[-71.7872901,42.2964601],[-71.7873978,42.2964307],[-71.7874221,42.2964241],[-71.7877133,42.2963656],[-71.7880642,42.2963104],[-71.788294,42.2963159],[-71.7884202,42.2963271],[-71.7884415,42.2963041],[-71.7885886,42.2961875],[-71.7886836,42.2961012],[-71.7886961,42.2960925],[-71.7888996,42.2959516],[-71.7889929,42.2959038],[-71.7891025,42.2958357],[-71.7897449,42.2957074],[-71.7900506,42.2955414],[-71.7901271,42.2954905],[-71.7903075,42.2953705],[-71.7905292,42.2952599],[-71.791269,42.2949179],[-71.7915222,42.2948189],[-71.7917882,42.2947282],[-71.7920387,42.2946427],[-71.7922118,42.2945814],[-71.7924264,42.2945053],[-71.7925081,42.2944723],[-71.7925531,42.2944517],[-71.792609,42.2944261],[-71.7927138,42.2943852],[-71.7929573,42.2943055],[-71.7931474,42.2942433],[-71.7932224,42.2942227],[-71.7932968,42.2942],[-71.7933226,42.2941884],[-71.7934488,42.2944375],[-71.793575,42.2946866],[-71.7935344,42.2948356],[-71.7934807,42.2950321],[-71.7934595,42.2951283],[-71.7934324,42.2952879],[-71.7934093,42.2954242],[-71.7933994,42.2954746],[-71.7933579,42.2956611],[-71.7933121,42.2958662],[-71.7932966,42.2959545],[-71.7932797,42.2960835],[-71.7932507,42.2963066],[-71.7932429,42.2963998],[-71.7932361,42.2965878],[-71.7932324,42.296713],[-71.7932343,42.2967736],[-71.7932336,42.2968234],[-71.7932371,42.2970596],[-71.7939806,42.2973314],[-71.7940706,42.2971914],[-71.7942506,42.2971114],[-71.7965006,42.2968614],[-71.7967063,42.2973565],[-71.7970401,42.2969532],[-71.7972606,42.2963014],[-71.7970806,42.2960014],[-71.7967806,42.2953314],[-71.7960506,42.2942514],[-71.7966597,42.2939298],[-71.7985506,42.2929314],[-71.7985406,42.2929014],[-71.7984706,42.2927114],[-71.7984206,42.2925214],[-71.7983906,42.2923214],[-71.7983606,42.2920414],[-71.7983706,42.2917714],[-71.7984106,42.2915214],[-71.7984806,42.2911314],[-71.7985606,42.2907714],[-71.7985906,42.2905514],[-71.7985906,42.2901814],[-71.7985306,42.2898214],[-71.7984706,42.2895914],[-71.7984106,42.2893914],[-71.7982905,42.2891514],[-71.7979005,42.2884714],[-71.7975905,42.2879414],[-71.7976905,42.2878514],[-71.7978305,42.2877714],[-71.7980205,42.2876814],[-71.7982405,42.2876114],[-71.7984605,42.2875814],[-71.7991105,42.2875514],[-71.8005105,42.2871714],[-71.8007005,42.2871314],[-71.8008805,42.2871314],[-71.8010305,42.2871314],[-71.8012279,42.2871762],[-71.8012505,42.2871814],[-71.8014105,42.2872314],[-71.8015705,42.2873114],[-71.8017305,42.2874414],[-71.8018405,42.2875514],[-71.8019605,42.2877114],[-71.8020205,42.2878014],[-71.8022205,42.2882614],[-71.8023405,42.2884414],[-71.8024405,42.2885314],[-71.8026905,42.2887414],[-71.8029305,42.2889114],[-71.8032005,42.2890614],[-71.8034705,42.2891814],[-71.8041005,42.2894114],[-71.8045205,42.2895514],[-71.8051005,42.2897514],[-71.8064305,42.2902314],[-71.8077505,42.2904214],[-71.8086605,42.2905414],[-71.8087357,42.2905552],[-71.8090405,42.2906114],[-71.8092005,42.2906014],[-71.8093105,42.2905614],[-71.8094005,42.2905014],[-71.8096205,42.2902414],[-71.8099377,42.2903379],[-71.8105405,42.2905214],[-71.8114605,42.2907914],[-71.8119505,42.2909314],[-71.8119705,42.2902114],[-71.8120605,42.2901414],[-71.8121705,42.2901714],[-71.8123705,42.2902514],[-71.8124505,42.2903614],[-71.8125805,42.2904514],[-71.8127105,42.2904714],[-71.8127605,42.2905714],[-71.8127405,42.2906714],[-71.8128805,42.2907914],[-71.8130805,42.2908014],[-71.8134105,42.2908814],[-71.8137205,42.2910114],[-71.8139805,42.2910214],[-71.8143305,42.2909114],[-71.8145605,42.2909314],[-71.8148105,42.2910314],[-71.8152005,42.2912114],[-71.8155305,42.2914314],[-71.8158005,42.2916914],[-71.8161605,42.2920714],[-71.8163405,42.2921114],[-71.8165205,42.2926314],[-71.8166705,42.2929814],[-71.8168605,42.2933514],[-71.8170705,42.2937314],[-71.8174806,42.2949814],[-71.8173506,42.2952314],[-71.8173106,42.2954214],[-71.8172806,42.2954514],[-71.8171606,42.2955614],[-71.8170006,42.2956414],[-71.8168706,42.2957414],[-71.8166006,42.2957514],[-71.8164506,42.2958614],[-71.8158606,42.2971514],[-71.8157406,42.2972614],[-71.8155606,42.2973014],[-71.8155206,42.2973814],[-71.8154806,42.2979414],[-71.8152906,42.2987914],[-71.8152006,42.2990914],[-71.8150806,42.2992814],[-71.8152006,42.2993814],[-71.8152106,42.2994814],[-71.8151006,42.2997314],[-71.8152925,42.3002324],[-71.8158206,42.3016114],[-71.8157906,42.3017714],[-71.8156706,42.3019114],[-71.8156406,42.3021014],[-71.8157506,42.3022114],[-71.8157898,42.3022244],[-71.8159306,42.3022714],[-71.8162106,42.3024514],[-71.8167006,42.3028414],[-71.8169506,42.3030814],[-71.8170406,42.3032414],[-71.8170806,42.3035314],[-71.8171284,42.3036389],[-71.8172006,42.3038014],[-71.8171706,42.3039314],[-71.8180406,42.3047814],[-71.8180506,42.3051214],[-71.8184306,42.3060114],[-71.8184994,42.3060199],[-71.8187734,42.3060539],[-71.8191569,42.3061841],[-71.8193446,42.3062944],[-71.8194489,42.3063557],[-71.8196486,42.3064453],[-71.8193406,42.3074014],[-71.8194206,42.3077314],[-71.8194606,42.3080514],[-71.8195406,42.3099014],[-71.8206128,42.3100817],[-71.8216849,42.310262],[-71.8217171,42.3104016],[-71.8217553,42.3105674],[-71.821766,42.3106201],[-71.8217923,42.3107711],[-71.8218247,42.3109571],[-71.8218537,42.311078],[-71.8219609,42.311473],[-71.82198,42.3114835],[-71.8220316,42.3115122],[-71.8220954,42.3115509],[-71.8222342,42.3116422],[-71.8223418,42.311713],[-71.8223732,42.3117391],[-71.8225141,42.311856],[-71.8227538,42.3120035],[-71.8228054,42.3120259],[-71.8228369,42.3120396],[-71.8230431,42.3121604],[-71.823278,42.3123389],[-71.8234642,42.3124804],[-71.8235625,42.3125462],[-71.8238915,42.3127518],[-71.824004,42.3128174],[-71.8240165,42.3128237],[-71.8240467,42.3128399],[-71.8241596,42.3129052],[-71.8243394,42.3130091],[-71.8243991,42.3130475],[-71.8245154,42.3131188],[-71.8246097,42.313168],[-71.8246844,42.3132069],[-71.8247492,42.3132451],[-71.8248088,42.3132803],[-71.8248992,42.3133279],[-71.8249966,42.3133793],[-71.8250708,42.3134225],[-71.8250715,42.313423],[-71.8250863,42.3134325],[-71.8251903,42.3134908],[-71.8253256,42.3135564],[-71.8254066,42.313597],[-71.8254179,42.3136017],[-71.8255994,42.3136946],[-71.8257103,42.3137708],[-71.8257635,42.3138073],[-71.8258341,42.3138487],[-71.8259145,42.3138963],[-71.8260433,42.3139885],[-71.8261336,42.3140518],[-71.8261466,42.3140601],[-71.8263049,42.3141784],[-71.8263677,42.31423],[-71.8264083,42.3142601],[-71.8264701,42.3143194],[-71.8265783,42.3144231],[-71.8266606,42.3144925],[-71.8271364,42.3150315],[-71.8272752,42.3152001],[-71.8273611,42.3153043],[-71.827393,42.3153377],[-71.8275102,42.3154678],[-71.8276408,42.3156158],[-71.8283858,42.3152264],[-71.8288706,42.3149514],[-71.8338506,42.3118714],[-71.8387852,42.3088594],[-71.8395492,42.308393],[-71.8388606,42.3074314],[-71.8386,42.3060446],[-71.8385932,42.3059122],[-71.8385906,42.305875],[-71.8385661,42.3056009],[-71.8385445,42.3053591],[-71.8385417,42.3053319],[-71.8385081,42.3050443],[-71.838476,42.3047702],[-71.8381902,42.3049055],[-71.8378907,42.3050493],[-71.8378307,42.3050806],[-71.8376581,42.3051783],[-71.8375419,42.3052441],[-71.8374891,42.3052762],[-71.837375,42.3053476],[-71.8372106,42.3054631],[-71.836379,42.305825],[-71.8353853,42.306123],[-71.8342554,42.3058389],[-71.8334729,42.3059517],[-71.8329385,42.3060288],[-71.8329683,42.3058124],[-71.8330068,42.3055342],[-71.8330314,42.3054123],[-71.833052,42.3053353],[-71.8330871,42.3052043],[-71.8331825,42.3048484],[-71.833245,42.3046783],[-71.8332823,42.3045998],[-71.833404,42.3043432],[-71.8334312,42.3042987],[-71.8334757,42.3042408],[-71.8336819,42.303601],[-71.8336814,42.3035851],[-71.8336873,42.3035097],[-71.83369,42.3034713],[-71.8337283,42.3032595],[-71.8337436,42.3032075],[-71.8337603,42.3031407],[-71.8337701,42.3030933],[-71.8337822,42.3030344],[-71.8338093,42.302931],[-71.8338372,42.302844],[-71.8338487,42.302808],[-71.8338821,42.3027946],[-71.833977,42.3027566],[-71.834096,42.3026994],[-71.8342394,42.3026185],[-71.8343252,42.3025701],[-71.8340779,42.3022407],[-71.8338306,42.3019114],[-71.8318906,42.3016514],[-71.8319326,42.3007499],[-71.8319746,42.2998484],[-71.8319635,42.2998316],[-71.8319526,42.2998146],[-71.8320266,42.2996858],[-71.8321214,42.2995208],[-71.8321599,42.2994468],[-71.8323244,42.2990949],[-71.8320832,42.2987295],[-71.8318772,42.2987071],[-71.8309776,42.2986093],[-71.8309905,42.2982614],[-71.8294405,42.2980814],[-71.8288542,42.2978259],[-71.8276648,42.2976068],[-71.8269088,42.2974675],[-71.8263222,42.2973595],[-71.8263305,42.2972014],[-71.8259105,42.2971014],[-71.8257355,42.2972514],[-71.8255205,42.2969414],[-71.8252005,42.2967214],[-71.8247705,42.2964414],[-71.8243405,42.2963514],[-71.8242105,42.2962914],[-71.8241505,42.2961714],[-71.8241705,42.2960314],[-71.8243305,42.2957214],[-71.8242905,42.2953614],[-71.824082,42.2947864],[-71.8240174,42.294661],[-71.8239742,42.2945476],[-71.8239165,42.2943957],[-71.8235845,42.2939584],[-71.822794,42.2927749],[-71.8228513,42.292609],[-71.8225091,42.2924297],[-71.822488,42.2921135],[-71.8224743,42.2919074],[-71.8224605,42.2917014],[-71.8224955,42.2914914],[-71.8225305,42.2912814],[-71.8225505,42.2911614],[-71.8225427,42.2910437],[-71.8224953,42.2910179],[-71.8219529,42.2905446],[-71.8214105,42.2900714],[-71.8204003,42.2899423],[-71.8200805,42.2899014],[-71.8196557,42.2898471],[-71.8195208,42.2898299],[-71.8189612,42.2897583],[-71.8189348,42.289755],[-71.8188425,42.2897432],[-71.8188246,42.2897409],[-71.8181405,42.2896314],[-71.8180788,42.2896218],[-71.8174932,42.2899871],[-71.8173377,42.2899525],[-71.8171825,42.2899164],[-71.8171341,42.2899006],[-71.8171067,42.2899011],[-71.8170793,42.2899017],[-71.816934,42.2900444],[-71.8168135,42.2901999],[-71.8167605,42.2902684],[-71.8166299,42.2904368],[-71.8165691,42.2906111],[-71.8162124,42.2910693],[-71.8160705,42.2911614],[-71.8159905,42.2908114],[-71.8158373,42.2907355],[-71.8156406,42.2906491],[-71.815602,42.290629],[-71.8155634,42.2906089],[-71.8155512,42.2904909],[-71.8155512,42.2902004],[-71.8155307,42.2897722],[-71.8154821,42.2893067],[-71.815458,42.2891548],[-71.8154016,42.2889376],[-71.815397,42.2886752],[-71.8154279,42.2884745],[-71.8154127,42.2883103],[-71.8153954,42.2881237],[-71.815395,42.2880855],[-71.8153884,42.2879842],[-71.8153735,42.2878626],[-71.8153718,42.2877757],[-71.8153352,42.287389],[-71.8152451,42.2870901],[-71.8152074,42.2869649],[-71.8151561,42.2868856],[-71.8151048,42.2868064],[-71.8150436,42.2867309],[-71.8149268,42.2866137],[-71.8147803,42.2864954],[-71.8145045,42.2863375],[-71.8139017,42.2860694],[-71.8135836,42.2859418],[-71.8134835,42.2859374],[-71.8133834,42.2859329],[-71.8125173,42.2859296],[-71.8122927,42.2858843],[-71.8120384,42.285833],[-71.8120054,42.285827],[-71.8117999,42.2857927],[-71.811554,42.2857516],[-71.8115059,42.2857448],[-71.8113207,42.2857231],[-71.8110494,42.2856913],[-71.8109091,42.2856934],[-71.8106967,42.2856372],[-71.8104842,42.285581],[-71.810331,42.2855701],[-71.8100512,42.2855501],[-71.8098096,42.2854986],[-71.8097418,42.285479],[-71.8097068,42.2854678],[-71.8095789,42.2854362],[-71.8093849,42.2854017],[-71.8092722,42.2853816],[-71.8092393,42.2853763],[-71.8091843,42.2853684],[-71.8091458,42.2853629],[-71.8091189,42.2852914],[-71.8090582,42.2851306],[-71.8090084,42.2849474],[-71.8089764,42.2847614],[-71.808959,42.2846605],[-71.8089449,42.2846015],[-71.8089221,42.2842711],[-71.8089438,42.2840492],[-71.8089714,42.283922],[-71.8090048,42.2837218],[-71.8090237,42.2836109],[-71.8090689,42.2833738],[-71.8090752,42.2833505],[-71.8085905,42.2826414],[-71.8085505,42.2816314],[-71.8085305,42.2808914],[-71.8085105,42.2803114],[-71.8085105,42.2801514],[-71.8085105,42.2800314],[-71.8085005,42.2796414],[-71.8085005,42.2795214],[-71.8084905,42.2793914],[-71.8085005,42.2792414],[-71.8085705,42.2788814],[-71.8084412,42.2787835],[-71.8082345,42.2785211],[-71.8080307,42.2785277],[-71.8079058,42.2785509],[-71.807875,42.2785566],[-71.8073505,42.2787814],[-71.8055005,42.2789214],[-71.8052905,42.2788414],[-71.8051205,42.2788914],[-71.8042305,42.2791714],[-71.8040905,42.2790014],[-71.8036705,42.2785714],[-71.8034005,42.2783014],[-71.8024105,42.2773114],[-71.8021905,42.2771214],[-71.8022605,42.2769214],[-71.8022605,42.2765514],[-71.8022105,42.2763114],[-71.8019505,42.2752114],[-71.8007105,42.2753814],[-71.8004905,42.2742714],[-71.8003405,42.2734014],[-71.8,42.2721514],[-71.7996104,42.2714814],[-71.7996204,42.2713214],[-71.7994204,42.2713614],[-71.7988304,42.2713714],[-71.7988404,42.2712414],[-71.7986004,42.2712614],[-71.7986104,42.2710814],[-71.7986404,42.2707114],[-71.7986507,42.2705643],[-71.7983804,42.2696814],[-71.7970304,42.2697114],[-71.7970604,42.2699514],[-71.7969204,42.2702514],[-71.7968404,42.2705814],[-71.7966604,42.2715214],[-71.7952604,42.2717514],[-71.7950204,42.2717814],[-71.7948404,42.2718014],[-71.7947705,42.2718114],[-71.7946205,42.2718214],[-71.7941904,42.2709914],[-71.7937004,42.2700714],[-71.7935504,42.2697114],[-71.7935004,42.2695714],[-71.7933904,42.2692814],[-71.7932904,42.2690214],[-71.7932004,42.2687114],[-71.7931704,42.2683714],[-71.793144,42.268034],[-71.7931304,42.2678614],[-71.7931204,42.2675914],[-71.7931404,42.2673114],[-71.7933404,42.2673314],[-71.7935504,42.2673514],[-71.7939704,42.2674014],[-71.7957904,42.2676314],[-71.7955904,42.2666014],[-71.7955704,42.2664414],[-71.7954704,42.2659014],[-71.7953004,42.2650714],[-71.7951204,42.2642914],[-71.7950604,42.2639914],[-71.7950004,42.2636714],[-71.7942704,42.2637914],[-71.793684,42.2638878],[-71.7934804,42.2638914],[-71.7934904,42.2635914],[-71.7935004,42.2634414],[-71.7935004,42.2632114],[-71.7934904,42.2628214],[-71.7934504,42.2622914],[-71.7929204,42.2624614],[-71.7920204,42.2627414],[-71.791555,42.2634217],[-71.791376,42.2636037],[-71.7913123,42.2636948],[-71.7912646,42.2637776],[-71.7910096,42.2638015],[-71.7909863,42.2638016],[-71.7907826,42.2638021],[-71.7906157,42.2637826],[-71.7899904,42.2636514],[-71.7889804,42.2641814],[-71.7883004,42.2645214],[-71.7878604,42.2647614],[-71.7879204,42.2653614],[-71.7878804,42.2658014],[-71.7877804,42.2661514],[-71.7881077,42.2661514],[-71.7881804,42.2661514],[-71.7878604,42.2666214],[-71.7877104,42.2672514],[-71.7875304,42.2673214],[-71.7874304,42.2677814],[-71.7881904,42.2676814],[-71.7882104,42.2693114],[-71.7854604,42.2694814],[-71.7845004,42.2694814],[-71.7843304,42.2695214],[-71.7841905,42.2705014],[-71.7842205,42.2706714],[-71.7842405,42.2707714],[-71.7844505,42.2711014],[-71.7848505,42.2718414],[-71.7841805,42.2727614],[-71.7835605,42.2728714],[-71.7819105,42.2732714],[-71.7804405,42.2734514],[-71.7797305,42.2734414],[-71.7796305,42.2734414],[-71.7793205,42.2734414],[-71.7784805,42.2734614],[-71.7784705,42.2736314],[-71.7784805,42.2741914],[-71.7784841,42.2743924],[-71.7784369,42.274408],[-71.7783688,42.2744305],[-71.7781611,42.2745351],[-71.7779534,42.2746397],[-71.7777161,42.2746668],[-71.7776909,42.2746697],[-71.7772035,42.2747395],[-71.7767429,42.2749312],[-71.7763625,42.2752183],[-71.7761877,42.2753502],[-71.7760221,42.275192],[-71.7758565,42.2750337],[-71.7756398,42.2749145],[-71.7752626,42.2747071],[-71.775052,42.2745472],[-71.774812,42.2743661],[-71.7745981,42.2742556],[-71.774561,42.2742364],[-71.774526,42.2742258],[-71.7741361,42.2740593],[-71.7739803,42.2739987],[-71.7738032,42.2739297],[-71.7725905,42.2736214],[-71.7711705,42.2736214],[-71.7702705,42.2736114],[-71.7700305,42.2736114],[-71.7700305,42.2737414],[-71.7696505,42.2737414],[-71.7694405,42.2737514],[-71.7692905,42.2737514],[-71.7691805,42.2737514],[-71.7689805,42.2737614],[-71.7684105,42.2737914],[-71.7678005,42.2738114],[-71.7669556,42.2741634],[-71.7665691,42.2743043],[-71.7664839,42.2743165],[-71.7660697,42.2744799],[-71.765888,42.2745514],[-71.7658692,42.2745568],[-71.7655595,42.2747106],[-71.7654027,42.2747946],[-71.7653756,42.2748065],[-71.7652173,42.2748935],[-71.7651956,42.274908],[-71.7650742,42.2749782],[-71.7649901,42.2750191],[-71.7649692,42.2750293],[-71.7647005,42.2761314],[-71.7635405,42.2759714],[-71.7636005,42.2749914],[-71.7631705,42.2745514],[-71.7623105,42.2741914],[-71.7616205,42.2743714],[-71.7610405,42.2756714],[-71.7604714,42.2755845],[-71.7597942,42.2753455],[-71.7597717,42.2753253],[-71.7597403,42.2752729],[-71.7596959,42.2751934],[-71.759596,42.2750135],[-71.7595807,42.2749777],[-71.7595597,42.2749099],[-71.7589005,42.2741814],[-71.7589005,42.2742914],[-71.7588705,42.2744114],[-71.7587205,42.2747314],[-71.7586605,42.2748614],[-71.7585905,42.2751214],[-71.7584005,42.2759514],[-71.7583405,42.2757114],[-71.7580605,42.2760214],[-71.7577405,42.2761014],[-71.7575905,42.2762414],[-71.7575305,42.2764914],[-71.7573905,42.2771414],[-71.7573405,42.2774214],[-71.7574905,42.2774414],[-71.7575605,42.2775814],[-71.7577505,42.2777714],[-71.7577405,42.2782014],[-71.7577705,42.2785914],[-71.7578605,42.2791614],[-71.7578405,42.2795514],[-71.7577505,42.2797714],[-71.7576005,42.2802414],[-71.7575105,42.2806514],[-71.7575206,42.2810414],[-71.7574906,42.2814414],[-71.7574206,42.2817414],[-71.7572906,42.2820914],[-71.7570706,42.2824914],[-71.7569906,42.2828214],[-71.7570906,42.2850314],[-71.7571506,42.2853714],[-71.7573206,42.2856414],[-71.7575606,42.2859714],[-71.7577506,42.2864314],[-71.7583406,42.2873014],[-71.7585206,42.2876514],[-71.7585906,42.2879114],[-71.7586206,42.2882414],[-71.7585206,42.2885014],[-71.7583306,42.2888414],[-71.7581906,42.2892014],[-71.7581506,42.2905914],[-71.7582306,42.2909214],[-71.7583006,42.2912613],[-71.7586206,42.2923713],[-71.7580506,42.2935413],[-71.7580806,42.2937513],[-71.7584607,42.2959713],[-71.7585107,42.2962413],[-71.7590807,42.2971613],[-71.7604507,42.2992913],[-71.7620207,42.3015713],[-71.7620407,42.3016713],[-71.7622107,42.3019713],[-71.7622107,42.3021913],[-71.7624307,42.3023813],[-71.7630707,42.3033013],[-71.7641307,42.3048313],[-71.7648607,42.3060213],[-71.7651207,42.3059113],[-71.7651107,42.3064213],[-71.7660007,42.3072813],[-71.7671307,42.3090213],[-71.7682907,42.3107913]]]}},{"type":"Feature","properties":{"POSTCODE":"01606","PC_NAME":"WORCESTER","PC_TYPE":"NON UNIQUE","PA_NAME":"WORCESTER","PA_FIPS":"82000","CITY_TOWN":"WORCESTER","COUNTY":"WORCESTER","AREA_SQMI":5.91677304,"SHAPE_AREA":15324371.8269,"SHAPE_LEN":20457.1553529},"geometry":{"type":"Polygon","coordinates":[[[-71.7682007,42.3112413],[-71.7689207,42.3123513],[-71.7702608,42.3146113],[-71.7707013,42.3154298],[-71.7722308,42.3182713],[-71.7716803,42.3186612],[-71.7713508,42.3189413],[-71.7711508,42.3191113],[-71.7710008,42.3192413],[-71.7709408,42.3193613],[-71.7709308,42.3195013],[-71.7709808,42.3196413],[-71.7710408,42.3197813],[-71.7710808,42.3198813],[-71.7712308,42.3200013],[-71.7714308,42.3200713],[-71.7715708,42.3200613],[-71.7716925,42.3200407],[-71.7716765,42.3200853],[-71.7716348,42.3201871],[-71.7715929,42.3202895],[-71.7715621,42.3203758],[-71.7715549,42.3203992],[-71.7715514,42.3204107],[-71.7715296,42.320474],[-71.7714877,42.3205841],[-71.7714442,42.3206984],[-71.7714198,42.3207704],[-71.7712736,42.3212637],[-71.7711383,42.3217205],[-71.7718317,42.3225128],[-71.7720458,42.3229267],[-71.7721616,42.3233956],[-71.7736207,42.3235959],[-71.7751008,42.3229813],[-71.7765008,42.3253813],[-71.7794808,42.3303713],[-71.7812309,42.3332913],[-71.7814876,42.3337215],[-71.7820009,42.3345813],[-71.7831009,42.3365013],[-71.7841308,42.3382629],[-71.7845092,42.33891],[-71.7845546,42.3389876],[-71.7846653,42.339177],[-71.7856209,42.3408113],[-71.7857909,42.3410113],[-71.7862009,42.3407913],[-71.7887209,42.3394613],[-71.7902432,42.3384979],[-71.7907909,42.3381513],[-71.7918865,42.3374384],[-71.7930808,42.3366613],[-71.7936208,42.3363313],[-71.7947801,42.3356277],[-71.7956308,42.3351113],[-71.7969208,42.3343513],[-71.7976808,42.3339013],[-71.7986808,42.3333513],[-71.7992008,42.3329913],[-71.7993408,42.3328913],[-71.8019908,42.3313313],[-71.8024315,42.3310366],[-71.8027558,42.3308198],[-71.8037108,42.3301813],[-71.8063132,42.3286738],[-71.8082507,42.3275513],[-71.8098207,42.3265713],[-71.8124319,42.3249742],[-71.8133035,42.324441],[-71.8168507,42.3222714],[-71.8186457,42.3211495],[-71.8209069,42.3197362],[-71.8211707,42.3195714],[-71.8227607,42.3186214],[-71.8228507,42.3185814],[-71.8229507,42.3185614],[-71.8231107,42.3185314],[-71.8237007,42.3181714],[-71.8245007,42.3176314],[-71.8259206,42.3166914],[-71.8266106,42.3163114],[-71.8271257,42.3159636],[-71.8276408,42.3156158],[-71.8275102,42.3154678],[-71.827393,42.3153377],[-71.8273611,42.3153043],[-71.8272752,42.3152001],[-71.8271364,42.3150315],[-71.8266606,42.3144925],[-71.8265783,42.3144231],[-71.8264701,42.3143194],[-71.8264083,42.3142601],[-71.8263677,42.31423],[-71.8263049,42.3141784],[-71.8261466,42.3140601],[-71.8261336,42.3140518],[-71.8260433,42.3139885],[-71.8259145,42.3138963],[-71.8258341,42.3138487],[-71.8257635,42.3138073],[-71.8257103,42.3137708],[-71.8255994,42.3136946],[-71.8254179,42.3136017],[-71.8254066,42.313597],[-71.8253256,42.3135564],[-71.8251903,42.3134908],[-71.8250863,42.3134325],[-71.8250715,42.313423],[-71.8250708,42.3134225],[-71.8249966,42.3133793],[-71.8248992,42.3133279],[-71.8248088,42.3132803],[-71.8247492,42.3132451],[-71.8246844,42.3132069],[-71.8246097,42.313168],[-71.8245154,42.3131188],[-71.8243991,42.3130475],[-71.8243394,42.3130091],[-71.8241596,42.3129052],[-71.8240467,42.3128399],[-71.8240165,42.3128237],[-71.824004,42.3128174],[-71.8238915,42.3127518],[-71.8235625,42.3125462],[-71.8234642,42.3124804],[-71.823278,42.3123389],[-71.8230431,42.3121604],[-71.8228369,42.3120396],[-71.8228054,42.3120259],[-71.8227538,42.3120035],[-71.8225141,42.311856],[-71.8223732,42.3117391],[-71.8223418,42.311713],[-71.8222342,42.3116422],[-71.8220954,42.3115509],[-71.8220316,42.3115122],[-71.82198,42.3114835],[-71.8219609,42.311473],[-71.8218537,42.311078],[-71.8218247,42.3109571],[-71.8217923,42.3107711],[-71.821766,42.3106201],[-71.8217553,42.3105674],[-71.8217171,42.3104016],[-71.8216849,42.310262],[-71.8206128,42.3100817],[-71.8195406,42.3099014],[-71.8194606,42.3080514],[-71.8194206,42.3077314],[-71.8193406,42.3074014],[-71.8196486,42.3064453],[-71.8194489,42.3063557],[-71.8193446,42.3062944],[-71.8191569,42.3061841],[-71.8187734,42.3060539],[-71.8184994,42.3060199],[-71.8184306,42.3060114],[-71.8180506,42.3051214],[-71.8180406,42.3047814],[-71.8171706,42.3039314],[-71.8172006,42.3038014],[-71.8171284,42.3036389],[-71.8170806,42.3035314],[-71.8170406,42.3032414],[-71.8169506,42.3030814],[-71.8167006,42.3028414],[-71.8162106,42.3024514],[-71.8159306,42.3022714],[-71.8157898,42.3022244],[-71.8157506,42.3022114],[-71.8156406,42.3021014],[-71.8156706,42.3019114],[-71.8157906,42.3017714],[-71.8158206,42.3016114],[-71.8152925,42.3002324],[-71.8151006,42.2997314],[-71.8152106,42.2994814],[-71.8152006,42.2993814],[-71.8150806,42.2992814],[-71.8152006,42.2990914],[-71.8152906,42.2987914],[-71.8154806,42.2979414],[-71.8155206,42.2973814],[-71.8155606,42.2973014],[-71.8157406,42.2972614],[-71.8158606,42.2971514],[-71.8164506,42.2958614],[-71.8166006,42.2957514],[-71.8168706,42.2957414],[-71.8170006,42.2956414],[-71.8171606,42.2955614],[-71.8172806,42.2954514],[-71.8173106,42.2954214],[-71.8173506,42.2952314],[-71.8174806,42.2949814],[-71.8170705,42.2937314],[-71.8168605,42.2933514],[-71.8166705,42.2929814],[-71.8165205,42.2926314],[-71.8163405,42.2921114],[-71.8161605,42.2920714],[-71.8158005,42.2916914],[-71.8155305,42.2914314],[-71.8152005,42.2912114],[-71.8148105,42.2910314],[-71.8145605,42.2909314],[-71.8143305,42.2909114],[-71.8139805,42.2910214],[-71.8137205,42.2910114],[-71.8134105,42.2908814],[-71.8130805,42.2908014],[-71.8128805,42.2907914],[-71.8127405,42.2906714],[-71.8127605,42.2905714],[-71.8127105,42.2904714],[-71.8125805,42.2904514],[-71.8124505,42.2903614],[-71.8123705,42.2902514],[-71.8121705,42.2901714],[-71.8120605,42.2901414],[-71.8119705,42.2902114],[-71.8119505,42.2909314],[-71.8114605,42.2907914],[-71.8105405,42.2905214],[-71.8099377,42.2903379],[-71.8096205,42.2902414],[-71.8094005,42.2905014],[-71.8093105,42.2905614],[-71.8092005,42.2906014],[-71.8090405,42.2906114],[-71.8087357,42.2905552],[-71.8086605,42.2905414],[-71.8077505,42.2904214],[-71.8064305,42.2902314],[-71.8051005,42.2897514],[-71.8045205,42.2895514],[-71.8041005,42.2894114],[-71.8034705,42.2891814],[-71.8032005,42.2890614],[-71.8029305,42.2889114],[-71.8026905,42.2887414],[-71.8024405,42.2885314],[-71.8023405,42.2884414],[-71.8022205,42.2882614],[-71.8020205,42.2878014],[-71.8019605,42.2877114],[-71.8018405,42.2875514],[-71.8017305,42.2874414],[-71.8015705,42.2873114],[-71.8014105,42.2872314],[-71.8012505,42.2871814],[-71.8012279,42.2871762],[-71.8010305,42.2871314],[-71.8008805,42.2871314],[-71.8007005,42.2871314],[-71.8005105,42.2871714],[-71.7991105,42.2875514],[-71.7984605,42.2875814],[-71.7982405,42.2876114],[-71.7980205,42.2876814],[-71.7978305,42.2877714],[-71.7976905,42.2878514],[-71.7975905,42.2879414],[-71.7979005,42.2884714],[-71.7982905,42.2891514],[-71.7984106,42.2893914],[-71.7984706,42.2895914],[-71.7985306,42.2898214],[-71.7985906,42.2901814],[-71.7985906,42.2905514],[-71.7985606,42.2907714],[-71.7984806,42.2911314],[-71.7984106,42.2915214],[-71.7983706,42.2917714],[-71.7983606,42.2920414],[-71.7983906,42.2923214],[-71.7984206,42.2925214],[-71.7984706,42.2927114],[-71.7985406,42.2929014],[-71.7985506,42.2929314],[-71.7966597,42.2939298],[-71.7960506,42.2942514],[-71.7967806,42.2953314],[-71.7970806,42.2960014],[-71.7972606,42.2963014],[-71.7970401,42.2969532],[-71.7967063,42.2973565],[-71.7965006,42.2968614],[-71.7942506,42.2971114],[-71.7940706,42.2971914],[-71.7939806,42.2973314],[-71.7932371,42.2970596],[-71.7932336,42.2968234],[-71.7932343,42.2967736],[-71.7932324,42.296713],[-71.7932361,42.2965878],[-71.7932429,42.2963998],[-71.7932507,42.2963066],[-71.7932797,42.2960835],[-71.7932966,42.2959545],[-71.7933121,42.2958662],[-71.7933579,42.2956611],[-71.7933994,42.2954746],[-71.7934093,42.2954242],[-71.7934324,42.2952879],[-71.7934595,42.2951283],[-71.7934807,42.2950321],[-71.7935344,42.2948356],[-71.793575,42.2946866],[-71.7934488,42.2944375],[-71.7933226,42.2941884],[-71.7932968,42.2942],[-71.7932224,42.2942227],[-71.7931474,42.2942433],[-71.7929573,42.2943055],[-71.7927138,42.2943852],[-71.792609,42.2944261],[-71.7925531,42.2944517],[-71.7925081,42.2944723],[-71.7924264,42.2945053],[-71.7922118,42.2945814],[-71.7920387,42.2946427],[-71.7917882,42.2947282],[-71.7915222,42.2948189],[-71.791269,42.2949179],[-71.7905292,42.2952599],[-71.7903075,42.2953705],[-71.7901271,42.2954905],[-71.7900506,42.2955414],[-71.7897449,42.2957074],[-71.7891025,42.2958357],[-71.7889929,42.2959038],[-71.7888996,42.2959516],[-71.7886961,42.2960925],[-71.7886836,42.2961012],[-71.7885886,42.2961875],[-71.7884415,42.2963041],[-71.7884202,42.2963271],[-71.788294,42.2963159],[-71.7880642,42.2963104],[-71.7877133,42.2963656],[-71.7874221,42.2964241],[-71.7873978,42.2964307],[-71.7872901,42.2964601],[-71.7872144,42.2964864],[-71.7869974,42.2965619],[-71.7868498,42.296627],[-71.7866294,42.2967463],[-71.7865232,42.2968037],[-71.7864396,42.2968544],[-71.7862544,42.2969795],[-71.7861097,42.2970772],[-71.7853257,42.2968812],[-71.7852512,42.2968673],[-71.7851739,42.2968562],[-71.7849293,42.2967887],[-71.7847921,42.2967313],[-71.7846922,42.2966895],[-71.7845291,42.2966371],[-71.7843876,42.2966048],[-71.7843299,42.2965916],[-71.7840594,42.297091],[-71.7839367,42.2975165],[-71.7839339,42.2975656],[-71.7838856,42.2980967],[-71.7839592,42.2986847],[-71.7840506,42.2988426],[-71.784099,42.2989378],[-71.7841626,42.2990811],[-71.7842045,42.2991754],[-71.7845788,42.2997887],[-71.7844708,42.3002436],[-71.7844906,42.3003714],[-71.7848806,42.3009114],[-71.7841606,42.3011914],[-71.7832506,42.3014814],[-71.7822098,42.3021553],[-71.7812467,42.3020284],[-71.7811707,42.3021314],[-71.7808732,42.3025339],[-71.7805757,42.3029364],[-71.7805279,42.303001],[-71.7802307,42.3031314],[-71.7801361,42.3025289],[-71.7800414,42.3019264],[-71.7799546,42.3019901],[-71.7798373,42.302076],[-71.7797781,42.3021229],[-71.7797249,42.3021684],[-71.7795798,42.3022925],[-71.7793068,42.3024531],[-71.7791122,42.3025402],[-71.7790412,42.3025704],[-71.7789652,42.3025375],[-71.7788442,42.3024942],[-71.7788173,42.3024865],[-71.7786283,42.3024322],[-71.7784308,42.3023965],[-71.778408,42.3023947],[-71.7783773,42.3023867],[-71.7778676,42.3023899],[-71.7778383,42.3023989],[-71.7771787,42.3023695],[-71.7768635,42.3023403],[-71.7768178,42.3023433],[-71.7767569,42.3023449],[-71.7765779,42.3023462],[-71.7764109,42.3023631],[-71.7763518,42.3023762],[-71.776121,42.302532],[-71.7759701,42.3026747],[-71.7759309,42.3027133],[-71.7762207,42.3034913],[-71.7762907,42.3035513],[-71.7769707,42.3044813],[-71.7778507,42.3057013],[-71.7786607,42.3067913],[-71.7775479,42.3070534],[-71.7757307,42.3074813],[-71.7789207,42.3113813],[-71.7784007,42.3113713],[-71.7779607,42.3113813],[-71.7775207,42.3114113],[-71.7774507,42.3114213],[-71.7771407,42.3114613],[-71.7768107,42.3115313],[-71.7765307,42.3116213],[-71.7763007,42.3117113],[-71.7758107,42.3119213],[-71.7756607,42.3119913],[-71.7748713,42.3123624],[-71.7746607,42.3124613],[-71.7737907,42.3128613],[-71.7733407,42.3126013],[-71.7742507,42.3121813],[-71.7740107,42.3118413],[-71.7722807,42.3093813],[-71.7682907,42.3107913],[-71.7682007,42.3112413]]]}},{"type":"Feature","properties":{"POSTCODE":"01602","PC_NAME":"WORCESTER","PC_TYPE":"NON UNIQUE","PA_NAME":"WORCESTER","PA_FIPS":"82000","CITY_TOWN":"WORCESTER","COUNTY":"WORCESTER","AREA_SQMI":5.79556491,"SHAPE_AREA":15010444.1966,"SHAPE_LEN":23440.4139053},"geometry":{"type":"Polygon","coordinates":[[[-71.8198604,42.2612614],[-71.8204404,42.2620014],[-71.8201704,42.2625414],[-71.8197704,42.2633814],[-71.8196204,42.2637114],[-71.8194604,42.2640214],[-71.8191304,42.2646614],[-71.8190604,42.2647914],[-71.8186704,42.2655214],[-71.8184004,42.2660214],[-71.8182204,42.2663614],[-71.8177204,42.2673414],[-71.8175804,42.2676414],[-71.8174804,42.2679114],[-71.8174104,42.2681514],[-71.8173204,42.2686014],[-71.8172704,42.2688514],[-71.8171504,42.2692114],[-71.8170004,42.2695714],[-71.8161504,42.2705814],[-71.8157204,42.2710114],[-71.8155404,42.2712014],[-71.8150304,42.2717414],[-71.8146304,42.2721514],[-71.8142504,42.2725514],[-71.8135204,42.2732814],[-71.8132004,42.2736314],[-71.8131004,42.2737514],[-71.8125804,42.2742614],[-71.8133804,42.2745914],[-71.8134904,42.2746214],[-71.8139904,42.2746514],[-71.8141004,42.2746314],[-71.8142504,42.2745914],[-71.8145604,42.2743714],[-71.8147204,42.2743214],[-71.8148104,42.2743114],[-71.8152704,42.2743514],[-71.8154004,42.2744114],[-71.8154704,42.2744714],[-71.8155104,42.2746114],[-71.8159704,42.2749014],[-71.8169804,42.2741914],[-71.8175804,42.2742314],[-71.8182488,42.274276],[-71.8183404,42.2735714],[-71.818348,42.2735904],[-71.8184841,42.2739327],[-71.8189139,42.2744296],[-71.8195882,42.2748184],[-71.8198936,42.2749945],[-71.8199613,42.2750335],[-71.8203844,42.2754908],[-71.8209905,42.2761313],[-71.8211759,42.2767281],[-71.8212205,42.2768714],[-71.8222505,42.2773414],[-71.8223005,42.2772314],[-71.8223605,42.2771714],[-71.8225605,42.2770614],[-71.8227805,42.2770314],[-71.8241505,42.2771814],[-71.8255904,42.2770614],[-71.8255205,42.2776414],[-71.8254421,42.2782905],[-71.8256905,42.2792214],[-71.8259005,42.2792314],[-71.8269105,42.2793014],[-71.8274705,42.2794414],[-71.8281905,42.2795814],[-71.8276305,42.2813514],[-71.8275605,42.2816014],[-71.8275205,42.2818414],[-71.8275205,42.2819314],[-71.8275205,42.2819414],[-71.8275905,42.2821014],[-71.8276105,42.2822314],[-71.8276005,42.2824614],[-71.8276205,42.2825214],[-71.8276805,42.2825714],[-71.8281205,42.2826714],[-71.8281805,42.2827114],[-71.8284348,42.2822962],[-71.8286892,42.2818809],[-71.8288235,42.2819672],[-71.8289867,42.2820721],[-71.8290429,42.282111],[-71.8291053,42.2821574],[-71.8292246,42.2822461],[-71.8292816,42.2822919],[-71.8292916,42.2823005],[-71.8294593,42.2824455],[-71.8294976,42.2824769],[-71.8297353,42.2827604],[-71.8298518,42.2829679],[-71.8298842,42.2830659],[-71.8299718,42.2833305],[-71.8300147,42.283666],[-71.8300228,42.2837291],[-71.8300253,42.2837505],[-71.8300324,42.2838173],[-71.8300532,42.2840135],[-71.8301266,42.2842974],[-71.8301411,42.2843318],[-71.8301697,42.2844037],[-71.8303076,42.2843798],[-71.8304549,42.2843543],[-71.8304738,42.2843509],[-71.8305862,42.2843292],[-71.830761,42.2842954],[-71.8308653,42.2842694],[-71.8309834,42.2842331],[-71.8310638,42.2842084],[-71.8310913,42.2842004],[-71.8312814,42.2841479],[-71.8315787,42.2840657],[-71.8316458,42.28405],[-71.8321034,42.2838043],[-71.8322086,42.2837052],[-71.8324262,42.2835161],[-71.8326472,42.2833365],[-71.8336905,42.2837914],[-71.8337815,42.2838046],[-71.8339781,42.283833],[-71.8341186,42.2838688],[-71.8341522,42.2838813],[-71.8343825,42.283937],[-71.8344789,42.2839484],[-71.8348029,42.2839278],[-71.8349513,42.2839335],[-71.8351752,42.2839422],[-71.8353258,42.2839367],[-71.8354181,42.2839263],[-71.8355003,42.283917],[-71.8356307,42.2839109],[-71.8356639,42.2839115],[-71.8357339,42.2839128],[-71.835749,42.2839131],[-71.8357945,42.283915],[-71.8358785,42.2839204],[-71.8359795,42.2839269],[-71.8360593,42.2839288],[-71.8363166,42.2839247],[-71.836559,42.2839209],[-71.8366088,42.2839214],[-71.8366638,42.2839232],[-71.8367199,42.2839252],[-71.8367719,42.2839256],[-71.8371845,42.2839182],[-71.8375712,42.2839113],[-71.8375614,42.2837871],[-71.8375387,42.2834998],[-71.8375656,42.2831781],[-71.8376836,42.2827067],[-71.8377619,42.2823939],[-71.8378853,42.2821102],[-71.8380086,42.2818265],[-71.8387224,42.2814556],[-71.839531,42.2810255],[-71.839773,42.2808452],[-71.8400703,42.280544],[-71.8402604,42.2803514],[-71.8411204,42.2804314],[-71.842196,42.2805315],[-71.8422604,42.2801414],[-71.8423004,42.2799514],[-71.8424104,42.2796914],[-71.8427504,42.2791814],[-71.8440292,42.2796889],[-71.8440206,42.2794244],[-71.8440305,42.2788379],[-71.8440311,42.2788071],[-71.8443604,42.2789514],[-71.8445164,42.2790197],[-71.84486,42.2791703],[-71.8450504,42.2787214],[-71.8453804,42.2788014],[-71.8456104,42.2788214],[-71.846171,42.2797482],[-71.8460521,42.2798252],[-71.8458539,42.2799843],[-71.8457737,42.2800487],[-71.8457004,42.2801137],[-71.8456102,42.280202],[-71.8455091,42.2803009],[-71.8453775,42.2804296],[-71.8453298,42.2804797],[-71.8452356,42.2805855],[-71.8451645,42.2806655],[-71.8449948,42.2806849],[-71.8447836,42.2807091],[-71.8447011,42.280722],[-71.8445042,42.2807614],[-71.8443483,42.2807927],[-71.844336,42.2808116],[-71.8442437,42.2809539],[-71.8441226,42.2812184],[-71.8440516,42.2814622],[-71.8440284,42.2815417],[-71.8439391,42.2818483],[-71.8436333,42.2823249],[-71.8435561,42.2823917],[-71.8435275,42.2824164],[-71.8433727,42.2825909],[-71.843059,42.2829263],[-71.8426584,42.2831904],[-71.842381,42.2833732],[-71.8421582,42.2835856],[-71.8418793,42.2835585],[-71.8416005,42.2835314],[-71.8416905,42.2838564],[-71.8417805,42.2841814],[-71.8422105,42.2852114],[-71.8422505,42.2853014],[-71.8462605,42.2852414],[-71.8462646,42.2864485],[-71.8463417,42.2865283],[-71.8464084,42.2865898],[-71.8464401,42.286621],[-71.8465119,42.286684],[-71.8465948,42.2867492],[-71.8466048,42.2867563],[-71.8466232,42.2867725],[-71.8466913,42.2868273],[-71.8467124,42.2868429],[-71.846792,42.2869151],[-71.8468315,42.2869491],[-71.8473307,42.2874655],[-71.8473448,42.2874696],[-71.847559,42.2873357],[-71.8475707,42.2873284],[-71.8478551,42.2871507],[-71.8479604,42.2870933],[-71.8482169,42.286973],[-71.8483937,42.2868901],[-71.8484451,42.2868677],[-71.8484888,42.2868502],[-71.8488951,42.2869455],[-71.8493472,42.2870515],[-71.8494427,42.2870691],[-71.8495672,42.2870862],[-71.8497175,42.2870954],[-71.8497314,42.2870952],[-71.8507896,42.2871448],[-71.8515007,42.2874969],[-71.8519212,42.2877051],[-71.8522094,42.2879077],[-71.8524976,42.2881102],[-71.852517,42.2881027],[-71.8525817,42.2880779],[-71.8526702,42.2880389],[-71.8529649,42.2878916],[-71.8532268,42.2877608],[-71.8532479,42.2877506],[-71.8532925,42.2877296],[-71.8533467,42.287704],[-71.8533867,42.2876841],[-71.8535472,42.2875996],[-71.8536879,42.2875255],[-71.8538843,42.2875777],[-71.8541025,42.2876356],[-71.8541463,42.2876462],[-71.8544303,42.2877081],[-71.854772,42.2877823],[-71.8548199,42.2877913],[-71.8548927,42.2878067],[-71.8550806,42.2878678],[-71.8550914,42.2878713],[-71.8552797,42.2879551],[-71.8553869,42.2880028],[-71.8554271,42.2880196],[-71.8555645,42.2880737],[-71.8556984,42.2881264],[-71.8557321,42.2881404],[-71.8558674,42.2881995],[-71.8560114,42.2882623],[-71.8560626,42.288283],[-71.8560948,42.288295],[-71.8562331,42.2883464],[-71.8564785,42.2884793],[-71.8568704,42.2887623],[-71.8569199,42.2887977],[-71.8570182,42.2888727],[-71.8572605,42.2897414],[-71.8575915,42.2906075],[-71.8579905,42.2916514],[-71.8581093,42.2919623],[-71.8586887,42.2934783],[-71.8592972,42.2950703],[-71.8591905,42.2957214],[-71.8590623,42.2965038],[-71.8626305,42.2943314],[-71.8626105,42.2941014],[-71.8626105,42.2937814],[-71.8631105,42.2940414],[-71.8633357,42.2933118],[-71.863561,42.2925821],[-71.8645398,42.2929248],[-71.8651737,42.2927484],[-71.8652705,42.2927214],[-71.8683505,42.2908714],[-71.8703404,42.2896414],[-71.8754004,42.2866014],[-71.8788204,42.2844514],[-71.8804404,42.2835215],[-71.8839904,42.2813515],[-71.8824504,42.2780415],[-71.8822069,42.2776545],[-71.8825498,42.2769358],[-71.8816336,42.2767434],[-71.8806875,42.2762809],[-71.8800112,42.2763487],[-71.8785946,42.2761203],[-71.8782955,42.2760353],[-71.8779332,42.2758704],[-71.8775272,42.2756856],[-71.8774422,42.2756418],[-71.87724,42.2755253],[-71.8770793,42.2754327],[-71.8769969,42.2753576],[-71.8768713,42.2752432],[-71.8767898,42.2751598],[-71.8766924,42.2750477],[-71.8765175,42.2748464],[-71.8762473,42.2746276],[-71.8760459,42.2745159],[-71.8759754,42.2744769],[-71.8759294,42.2744498],[-71.8757409,42.2743317],[-71.8755751,42.2742279],[-71.8754503,42.2740826],[-71.8753204,42.2739314],[-71.8753102,42.2739194],[-71.8751514,42.2737286],[-71.8749977,42.2735438],[-71.8750234,42.2732687],[-71.8750499,42.2729868],[-71.8750513,42.2729728],[-71.8750991,42.2725288],[-71.8751634,42.2719324],[-71.874828,42.2706535],[-71.8747101,42.2703346],[-71.8745863,42.2699995],[-71.8745803,42.2699828],[-71.8745123,42.2697884],[-71.8744298,42.2695525],[-71.8743897,42.2694546],[-71.8741773,42.2689984],[-71.8741607,42.2689631],[-71.8740988,42.2688377],[-71.8740042,42.2686458],[-71.8739506,42.2685507],[-71.8738004,42.268315],[-71.8736981,42.2681546],[-71.8736589,42.2680976],[-71.8733578,42.267672],[-71.8733032,42.267601],[-71.8730473,42.2672973],[-71.8727391,42.2669316],[-71.8726034,42.2667223],[-71.872416,42.2663344],[-71.8722877,42.2660689],[-71.872279,42.2660504],[-71.8721931,42.2658629],[-71.8720827,42.2656221],[-71.8720467,42.2655322],[-71.8718359,42.2649223],[-71.8715917,42.2642159],[-71.8715795,42.2641734],[-71.8715622,42.2641128],[-71.8713813,42.2633241],[-71.8712124,42.2625878],[-71.8709708,42.2626499],[-71.8708146,42.2626901],[-71.870716,42.2627154],[-71.8706896,42.2627218],[-71.8706205,42.2627376],[-71.8705443,42.262755],[-71.8705037,42.2627651],[-71.8699563,42.2629144],[-71.8694085,42.2630638],[-71.8693671,42.2630741],[-71.8691607,42.263121],[-71.8689553,42.2631677],[-71.8689159,42.2631775],[-71.8685915,42.2632653],[-71.8682646,42.2633537],[-71.8682202,42.2633646],[-71.8680083,42.2634116],[-71.8677869,42.2634608],[-71.8677239,42.2634769],[-71.8674342,42.2635613],[-71.8671757,42.2636366],[-71.867072,42.2636623],[-71.8668235,42.2637239],[-71.8666523,42.2637741],[-71.8665683,42.2638071],[-71.8662911,42.2639718],[-71.8660853,42.2641444],[-71.8658986,42.264352],[-71.8657274,42.2646062],[-71.865664,42.2647003],[-71.8655491,42.2647922],[-71.8653816,42.2649262],[-71.8652713,42.2650029],[-71.8649562,42.2651919],[-71.8646682,42.2653647],[-71.8646085,42.2654035],[-71.8644575,42.2655093],[-71.864283,42.2656317],[-71.8642177,42.2656869],[-71.8636297,42.2659213],[-71.8635398,42.2659265],[-71.8633685,42.2659613],[-71.8628801,42.266088],[-71.8624955,42.265954],[-71.8611957,42.2657872],[-71.8599985,42.2649017],[-71.858811,42.2640233],[-71.8587897,42.2628251],[-71.8591039,42.2621204],[-71.8591243,42.2620711],[-71.8593098,42.261587],[-71.859515,42.2610516],[-71.8595337,42.2609983],[-71.8595579,42.2609226],[-71.8595735,42.2608738],[-71.8594746,42.2607545],[-71.8589789,42.2597857],[-71.8588851,42.2592524],[-71.8588742,42.2591713],[-71.8588362,42.2587601],[-71.8587909,42.258271],[-71.8587643,42.2581167],[-71.8587187,42.2579376],[-71.8585883,42.2576395],[-71.858399,42.2573481],[-71.8583103,42.2572115],[-71.8567203,42.2546715],[-71.8550703,42.2520815],[-71.8549803,42.2521115],[-71.8542503,42.2523915],[-71.8531103,42.2527715],[-71.8517719,42.2526139],[-71.8517216,42.2526232],[-71.8515016,42.2526642],[-71.8505865,42.2523627],[-71.850322,42.2520787],[-71.8501455,42.251933],[-71.849947,42.251809],[-71.8498604,42.2517549],[-71.8496369,42.2516475],[-71.8493947,42.2515312],[-71.8489185,42.2513025],[-71.8488972,42.2512926],[-71.8487107,42.2512084],[-71.8485743,42.2511468],[-71.8487203,42.2517715],[-71.8478903,42.2523015],[-71.8469684,42.2512335],[-71.8456344,42.2521025],[-71.8443003,42.2529715],[-71.8432503,42.2519115],[-71.8423303,42.2509615],[-71.8421003,42.2507115],[-71.8416603,42.2502915],[-71.8414203,42.2500215],[-71.8413803,42.2501315],[-71.8409003,42.2497915],[-71.8404903,42.2495915],[-71.8405803,42.2494815],[-71.8404503,42.2494215],[-71.8401603,42.2493415],[-71.8400503,42.2494415],[-71.8396003,42.2493815],[-71.8390603,42.2493915],[-71.8385703,42.2494515],[-71.8382403,42.2495715],[-71.8380403,42.2497115],[-71.8378903,42.2498815],[-71.8376203,42.2502815],[-71.8375603,42.2507515],[-71.8373403,42.2508615],[-71.8372203,42.2510215],[-71.8373203,42.2510915],[-71.8373265,42.251113],[-71.8373603,42.2512315],[-71.8373403,42.2513415],[-71.8373503,42.2514515],[-71.8374403,42.2515815],[-71.8383203,42.2523015],[-71.8384103,42.2524215],[-71.8384303,42.2525415],[-71.8383603,42.2527015],[-71.8383103,42.2528515],[-71.8383303,42.2529815],[-71.8384103,42.2531115],[-71.8394603,42.2540415],[-71.8395703,42.2545315],[-71.8397003,42.2547615],[-71.8400803,42.2550615],[-71.8402903,42.2553315],[-71.8404203,42.2554215],[-71.8406603,42.2555115],[-71.8407803,42.2556315],[-71.8408203,42.2557415],[-71.8409803,42.2557915],[-71.8415403,42.2557615],[-71.8381243,42.2575666],[-71.8367903,42.2582715],[-71.8367103,42.2583015],[-71.8359347,42.2585118],[-71.8338704,42.2590715],[-71.8309704,42.2592414],[-71.8303704,42.2589614],[-71.8300404,42.2588214],[-71.8298604,42.2587614],[-71.8296904,42.2587314],[-71.8294304,42.2587114],[-71.8287804,42.2587014],[-71.8279204,42.2586614],[-71.8277304,42.2586414],[-71.8275004,42.2586114],[-71.8273504,42.2585714],[-71.8271004,42.2584614],[-71.8267904,42.2582414],[-71.8271903,42.2575014],[-71.8273303,42.2572814],[-71.8276703,42.2568414],[-71.8288603,42.2553015],[-71.8279703,42.2548015],[-71.8279503,42.2546915],[-71.8278603,42.2546015],[-71.8272425,42.2541985],[-71.8267103,42.2538515],[-71.8260303,42.2544615],[-71.8251403,42.2552314],[-71.8250003,42.2553514],[-71.8243103,42.2559514],[-71.8237203,42.2564614],[-71.8231903,42.2568914],[-71.8230903,42.2570114],[-71.8227304,42.2576514],[-71.8221604,42.2587514],[-71.8215704,42.2598514],[-71.8209304,42.2610414],[-71.8208604,42.2611714],[-71.8207004,42.2614614],[-71.8198604,42.2612614]]]}},{"type":"Feature","properties":{"POSTCODE":"01604","PC_NAME":"WORCESTER","PC_TYPE":"NON UNIQUE","PA_NAME":"WORCESTER","PA_FIPS":"82000","CITY_TOWN":"WORCESTER","COUNTY":"WORCESTER","AREA_SQMI":6.95478238,"SHAPE_AREA":18012803.6845,"SHAPE_LEN":22327.0892496},"geometry":{"type":"Polygon","coordinates":[[[-71.7580605,42.2760214],[-71.7583405,42.2757114],[-71.7584005,42.2759514],[-71.7585905,42.2751214],[-71.7586605,42.2748614],[-71.7587205,42.2747314],[-71.7588705,42.2744114],[-71.7589005,42.2742914],[-71.7589005,42.2741814],[-71.7595597,42.2749099],[-71.7595807,42.2749777],[-71.759596,42.2750135],[-71.7596959,42.2751934],[-71.7597403,42.2752729],[-71.7597717,42.2753253],[-71.7597942,42.2753455],[-71.7604714,42.2755845],[-71.7610405,42.2756714],[-71.7616205,42.2743714],[-71.7623105,42.2741914],[-71.7631705,42.2745514],[-71.7636005,42.2749914],[-71.7635405,42.2759714],[-71.7647005,42.2761314],[-71.7649692,42.2750293],[-71.7649901,42.2750191],[-71.7650742,42.2749782],[-71.7651956,42.274908],[-71.7652173,42.2748935],[-71.7653756,42.2748065],[-71.7654027,42.2747946],[-71.7655595,42.2747106],[-71.7658692,42.2745568],[-71.765888,42.2745514],[-71.7660697,42.2744799],[-71.7664839,42.2743165],[-71.7665691,42.2743043],[-71.7669556,42.2741634],[-71.7678005,42.2738114],[-71.7684105,42.2737914],[-71.7689805,42.2737614],[-71.7691805,42.2737514],[-71.7692905,42.2737514],[-71.7694405,42.2737514],[-71.7696505,42.2737414],[-71.7700305,42.2737414],[-71.7700305,42.2736114],[-71.7702705,42.2736114],[-71.7711705,42.2736214],[-71.7725905,42.2736214],[-71.7738032,42.2739297],[-71.7739803,42.2739987],[-71.7741361,42.2740593],[-71.774526,42.2742258],[-71.774561,42.2742364],[-71.7745981,42.2742556],[-71.774812,42.2743661],[-71.775052,42.2745472],[-71.7752626,42.2747071],[-71.7756398,42.2749145],[-71.7758565,42.2750337],[-71.7760221,42.275192],[-71.7761877,42.2753502],[-71.7763625,42.2752183],[-71.7767429,42.2749312],[-71.7772035,42.2747395],[-71.7776909,42.2746697],[-71.7777161,42.2746668],[-71.7779534,42.2746397],[-71.7781611,42.2745351],[-71.7783688,42.2744305],[-71.7784369,42.274408],[-71.7784841,42.2743924],[-71.7784805,42.2741914],[-71.7784705,42.2736314],[-71.7784805,42.2734614],[-71.7793205,42.2734414],[-71.7796305,42.2734414],[-71.7797305,42.2734414],[-71.7804405,42.2734514],[-71.7819105,42.2732714],[-71.7835605,42.2728714],[-71.7841805,42.2727614],[-71.7848505,42.2718414],[-71.7844505,42.2711014],[-71.7842405,42.2707714],[-71.7842205,42.2706714],[-71.7841905,42.2705014],[-71.7843304,42.2695214],[-71.7845004,42.2694814],[-71.7854604,42.2694814],[-71.7882104,42.2693114],[-71.7881904,42.2676814],[-71.7874304,42.2677814],[-71.7875304,42.2673214],[-71.7877104,42.2672514],[-71.7878604,42.2666214],[-71.7881804,42.2661514],[-71.7881077,42.2661514],[-71.7877804,42.2661514],[-71.7878804,42.2658014],[-71.7879204,42.2653614],[-71.7878604,42.2647614],[-71.7883004,42.2645214],[-71.7889804,42.2641814],[-71.7899904,42.2636514],[-71.7906157,42.2637826],[-71.7907826,42.2638021],[-71.7909863,42.2638016],[-71.7910096,42.2638015],[-71.7912646,42.2637776],[-71.7913123,42.2636948],[-71.791376,42.2636037],[-71.791555,42.2634217],[-71.7920204,42.2627414],[-71.7929204,42.2624614],[-71.7934504,42.2622914],[-71.7934904,42.2628214],[-71.7935004,42.2632114],[-71.7935004,42.2634414],[-71.7934904,42.2635914],[-71.7934804,42.2638914],[-71.793684,42.2638878],[-71.7942704,42.2637914],[-71.7950004,42.2636714],[-71.7949704,42.2635014],[-71.7953604,42.2634714],[-71.7957304,42.2634214],[-71.7959404,42.2633914],[-71.7962504,42.2633114],[-71.7964604,42.2632414],[-71.7966904,42.2631414],[-71.7968104,42.2630614],[-71.7965804,42.2627714],[-71.7964698,42.2626134],[-71.7965654,42.2625464],[-71.7975404,42.2618414],[-71.7977404,42.2618614],[-71.7980904,42.2619314],[-71.7984504,42.2614214],[-71.7988104,42.2608714],[-71.7989804,42.2606014],[-71.7998704,42.2598214],[-71.7998304,42.2593914],[-71.7997804,42.2591514],[-71.7998404,42.2585014],[-71.7987704,42.2591514],[-71.7980704,42.2580814],[-71.7980204,42.2573714],[-71.7979804,42.2570314],[-71.7979804,42.2567314],[-71.7979104,42.2556814],[-71.7978904,42.2553214],[-71.7978103,42.2550514],[-71.7974903,42.2548714],[-71.7975203,42.2545914],[-71.7974503,42.2543914],[-71.7973303,42.2542414],[-71.7972703,42.2541714],[-71.7972203,42.2540914],[-71.7970903,42.2539014],[-71.7970003,42.2537814],[-71.7969203,42.2536514],[-71.7960103,42.2523314],[-71.7955203,42.2516314],[-71.7953303,42.2512714],[-71.7952603,42.2511414],[-71.7945003,42.2511114],[-71.793505,42.2510721],[-71.7934003,42.2491814],[-71.7924403,42.2486614],[-71.7924103,42.2484114],[-71.7922303,42.2476314],[-71.7918903,42.2460514],[-71.7911803,42.2429914],[-71.7911103,42.2424714],[-71.7911103,42.2423014],[-71.7911503,42.2419614],[-71.7913403,42.2412114],[-71.7914603,42.2408314],[-71.7916603,42.2401414],[-71.7899747,42.2398399],[-71.788679,42.2396081],[-71.788289,42.2395383],[-71.7882683,42.2390062],[-71.7882405,42.2384524],[-71.7881887,42.2383885],[-71.7881368,42.2383247],[-71.7871786,42.2377878],[-71.7862204,42.2372508],[-71.785746,42.2376196],[-71.7852546,42.2380017],[-71.7852211,42.2380289],[-71.7851694,42.2380728],[-71.7851184,42.2381161],[-71.7850861,42.2381424],[-71.7850219,42.2381925],[-71.7849741,42.2382297],[-71.7848398,42.2383272],[-71.7846839,42.2384403],[-71.7846416,42.2384726],[-71.7845063,42.2385822],[-71.7842952,42.2387532],[-71.7841919,42.2388498],[-71.7840195,42.2390354],[-71.7837267,42.2393506],[-71.7836002,42.2395195],[-71.7835014,42.2396854],[-71.7834449,42.2397863],[-71.7833303,42.2397652],[-71.7832625,42.2397512],[-71.7826783,42.2396732],[-71.7821403,42.2396014],[-71.7795425,42.2391007],[-71.7769447,42.2386],[-71.7769709,42.2383908],[-71.7770139,42.2380469],[-71.7770109,42.237777],[-71.7769943,42.2376649],[-71.7769906,42.2376375],[-71.7769857,42.2376014],[-71.7769837,42.2375874],[-71.7769279,42.2372178],[-71.7768695,42.2368307],[-71.7768661,42.2368096],[-71.7768618,42.2367848],[-71.7768468,42.2366978],[-71.7768255,42.2366026],[-71.7768126,42.2365558],[-71.7768043,42.2365272],[-71.7766393,42.2359914],[-71.7764822,42.2354811],[-71.7764846,42.2354415],[-71.7764897,42.2353574],[-71.7764911,42.2352681],[-71.7764727,42.2346329],[-71.776456,42.2340535],[-71.7764551,42.2340311],[-71.7764388,42.2337131],[-71.7764184,42.2333156],[-71.7763827,42.2326214],[-71.7763815,42.2326012],[-71.7763754,42.2325155],[-71.7763636,42.2323515],[-71.7763568,42.2322864],[-71.7763426,42.2321831],[-71.7762858,42.2319619],[-71.7762637,42.2319051],[-71.7760577,42.2313794],[-71.7757925,42.2307036],[-71.7757009,42.2305252],[-71.7764405,42.2297752],[-71.7760403,42.2291014],[-71.7756643,42.2284684],[-71.7753399,42.2279224],[-71.7750674,42.2274637],[-71.7746395,42.2267433],[-71.7742818,42.2261412],[-71.7743749,42.2260051],[-71.7744102,42.2259498],[-71.7745328,42.2257427],[-71.7746387,42.2255639],[-71.7747635,42.224801],[-71.7748883,42.224038],[-71.7750328,42.2236381],[-71.7752001,42.2231751],[-71.7752539,42.2230524],[-71.7754727,42.2226331],[-71.7756354,42.2223211],[-71.7756903,42.2222284],[-71.7761172,42.2215459],[-71.7761487,42.2214983],[-71.7763058,42.2212747],[-71.7764401,42.2210835],[-71.776453,42.2210655],[-71.7765475,42.2209372],[-71.7766354,42.2208178],[-71.7765837,42.2207704],[-71.7765088,42.2207019],[-71.7764638,42.220658],[-71.7764355,42.2206287],[-71.7762744,42.2204614],[-71.7762289,42.2204042],[-71.7755903,42.2201114],[-71.7742803,42.2206814],[-71.7728203,42.2208214],[-71.7652003,42.2241214],[-71.7616903,42.2255814],[-71.7547584,42.2286766],[-71.7543746,42.228848],[-71.7536503,42.2291714],[-71.751744,42.2300176],[-71.7516935,42.2300401],[-71.7470202,42.2321145],[-71.7454503,42.2328114],[-71.7432438,42.2337816],[-71.7428803,42.2339414],[-71.7410503,42.2347814],[-71.7390803,42.2356614],[-71.7354803,42.2371514],[-71.7342803,42.2376214],[-71.7334703,42.2379714],[-71.7331003,42.2385414],[-71.7313003,42.2413314],[-71.7390203,42.2426114],[-71.7400503,42.2428314],[-71.7419503,42.2431514],[-71.7426203,42.2432114],[-71.7432003,42.2432914],[-71.7441003,42.2434614],[-71.7447703,42.2435914],[-71.7460903,42.2437914],[-71.7461065,42.2438237],[-71.7462003,42.2440114],[-71.7480803,42.2479414],[-71.7480003,42.2479414],[-71.7480203,42.2482714],[-71.7479203,42.2484514],[-71.7480803,42.2487614],[-71.7484903,42.2487814],[-71.7490903,42.2500414],[-71.7505904,42.2529814],[-71.7505704,42.2533614],[-71.7508004,42.2536314],[-71.7510404,42.2538614],[-71.7513204,42.2544214],[-71.7514604,42.2549714],[-71.7515104,42.2554214],[-71.7515904,42.2557514],[-71.7517904,42.2561714],[-71.7517704,42.2565414],[-71.7519704,42.2574214],[-71.7519404,42.2580114],[-71.7519704,42.2585914],[-71.7518504,42.2588814],[-71.7516504,42.2592714],[-71.7516304,42.2595714],[-71.7521104,42.2601614],[-71.7522237,42.2606939],[-71.7517104,42.2620914],[-71.7514104,42.2619614],[-71.7512867,42.2619459],[-71.7510904,42.2619214],[-71.7508004,42.2619714],[-71.7505704,42.2620914],[-71.7503904,42.2623314],[-71.7504104,42.2625514],[-71.7505504,42.2627014],[-71.7506304,42.2627914],[-71.7505604,42.2629514],[-71.7502704,42.2632914],[-71.7509904,42.2634314],[-71.7510904,42.2637714],[-71.7511074,42.2637863],[-71.7513404,42.2639914],[-71.7515304,42.2642214],[-71.7515304,42.2644114],[-71.7513304,42.2646914],[-71.7510604,42.2649814],[-71.7509904,42.2652414],[-71.7509804,42.2654814],[-71.7511604,42.2656814],[-71.7515004,42.2658314],[-71.7518204,42.2660514],[-71.7519905,42.2662714],[-71.7522005,42.2675814],[-71.7523105,42.2678514],[-71.7524071,42.2679835],[-71.7529905,42.2687814],[-71.7530905,42.2691714],[-71.7529505,42.2694914],[-71.7527805,42.2697414],[-71.7527005,42.2699214],[-71.7527605,42.2700814],[-71.7530805,42.2701114],[-71.7532505,42.2701314],[-71.7535405,42.2702914],[-71.7536365,42.2704087],[-71.7537205,42.2705114],[-71.7538505,42.2708014],[-71.7540105,42.2712714],[-71.7538805,42.2715414],[-71.7536805,42.2717614],[-71.7535305,42.2720214],[-71.7535305,42.2723514],[-71.7538505,42.2730914],[-71.7540405,42.2733614],[-71.7542705,42.2735714],[-71.7554805,42.2743614],[-71.7564205,42.2743114],[-71.7572105,42.2742614],[-71.7576905,42.2745314],[-71.7578605,42.2748214],[-71.7577605,42.2750314],[-71.7577905,42.2754214],[-71.7576505,42.2756014],[-71.7577705,42.2756614],[-71.7578605,42.2756914],[-71.7580605,42.2760214]]]}},{"type":"Feature","properties":{"POSTCODE":"01603","PC_NAME":"WORCESTER","PC_TYPE":"NON UNIQUE","PA_NAME":"WORCESTER","PA_FIPS":"82000","CITY_TOWN":"WORCESTER","COUNTY":"WORCESTER","AREA_SQMI":4.77564454,"SHAPE_AREA":12368862.5751,"SHAPE_LEN":22853.5134381},"geometry":{"type":"Polygon","coordinates":[[[-71.8272425,42.2541985],[-71.8278603,42.2546015],[-71.8279503,42.2546915],[-71.8279703,42.2548015],[-71.8288603,42.2553015],[-71.8276703,42.2568414],[-71.8273303,42.2572814],[-71.8271903,42.2575014],[-71.8267904,42.2582414],[-71.8271004,42.2584614],[-71.8273504,42.2585714],[-71.8275004,42.2586114],[-71.8277304,42.2586414],[-71.8279204,42.2586614],[-71.8287804,42.2587014],[-71.8294304,42.2587114],[-71.8296904,42.2587314],[-71.8298604,42.2587614],[-71.8300404,42.2588214],[-71.8303704,42.2589614],[-71.8309704,42.2592414],[-71.8338704,42.2590715],[-71.8359347,42.2585118],[-71.8367103,42.2583015],[-71.8367903,42.2582715],[-71.8381243,42.2575666],[-71.8415403,42.2557615],[-71.8409803,42.2557915],[-71.8408203,42.2557415],[-71.8407803,42.2556315],[-71.8406603,42.2555115],[-71.8404203,42.2554215],[-71.8402903,42.2553315],[-71.8400803,42.2550615],[-71.8397003,42.2547615],[-71.8395703,42.2545315],[-71.8394603,42.2540415],[-71.8384103,42.2531115],[-71.8383303,42.2529815],[-71.8383103,42.2528515],[-71.8383603,42.2527015],[-71.8384303,42.2525415],[-71.8384103,42.2524215],[-71.8383203,42.2523015],[-71.8374403,42.2515815],[-71.8373503,42.2514515],[-71.8373403,42.2513415],[-71.8373603,42.2512315],[-71.8373265,42.251113],[-71.8373203,42.2510915],[-71.8372203,42.2510215],[-71.8373403,42.2508615],[-71.8375603,42.2507515],[-71.8376203,42.2502815],[-71.8378903,42.2498815],[-71.8380403,42.2497115],[-71.8382403,42.2495715],[-71.8385703,42.2494515],[-71.8390603,42.2493915],[-71.8396003,42.2493815],[-71.8400503,42.2494415],[-71.8401603,42.2493415],[-71.8404503,42.2494215],[-71.8405803,42.2494815],[-71.8404903,42.2495915],[-71.8409003,42.2497915],[-71.8413803,42.2501315],[-71.8414203,42.2500215],[-71.8416603,42.2502915],[-71.8421003,42.2507115],[-71.8423303,42.2509615],[-71.8432503,42.2519115],[-71.8443003,42.2529715],[-71.8456344,42.2521025],[-71.8469684,42.2512335],[-71.8478903,42.2523015],[-71.8487203,42.2517715],[-71.8485743,42.2511468],[-71.8487107,42.2512084],[-71.8488972,42.2512926],[-71.8489185,42.2513025],[-71.8493947,42.2515312],[-71.8496369,42.2516475],[-71.8498604,42.2517549],[-71.849947,42.251809],[-71.8501455,42.251933],[-71.850322,42.2520787],[-71.8505865,42.2523627],[-71.8515016,42.2526642],[-71.8517216,42.2526232],[-71.8517719,42.2526139],[-71.8531103,42.2527715],[-71.8542503,42.2523915],[-71.8549803,42.2521115],[-71.8550703,42.2520815],[-71.8567203,42.2546715],[-71.8583103,42.2572115],[-71.858399,42.2573481],[-71.8585883,42.2576395],[-71.8587187,42.2579376],[-71.8587643,42.2581167],[-71.8587909,42.258271],[-71.8588362,42.2587601],[-71.8588742,42.2591713],[-71.8588851,42.2592524],[-71.8589789,42.2597857],[-71.8594746,42.2607545],[-71.8595735,42.2608738],[-71.8595579,42.2609226],[-71.8595337,42.2609983],[-71.859515,42.2610516],[-71.8593098,42.261587],[-71.8591243,42.2620711],[-71.8591039,42.2621204],[-71.8587897,42.2628251],[-71.858811,42.2640233],[-71.8599985,42.2649017],[-71.8611957,42.2657872],[-71.8624955,42.265954],[-71.8628801,42.266088],[-71.8633685,42.2659613],[-71.8635398,42.2659265],[-71.8636297,42.2659213],[-71.8642177,42.2656869],[-71.864283,42.2656317],[-71.8644575,42.2655093],[-71.8646085,42.2654035],[-71.8646682,42.2653647],[-71.8649562,42.2651919],[-71.8652713,42.2650029],[-71.8653816,42.2649262],[-71.8655491,42.2647922],[-71.865664,42.2647003],[-71.8657274,42.2646062],[-71.8658986,42.264352],[-71.8660853,42.2641444],[-71.8662911,42.2639718],[-71.8665683,42.2638071],[-71.8666523,42.2637741],[-71.8668235,42.2637239],[-71.867072,42.2636623],[-71.8671757,42.2636366],[-71.8674342,42.2635613],[-71.8677239,42.2634769],[-71.8677869,42.2634608],[-71.8680083,42.2634116],[-71.8682202,42.2633646],[-71.8682646,42.2633537],[-71.8685915,42.2632653],[-71.8689159,42.2631775],[-71.8689553,42.2631677],[-71.8691607,42.263121],[-71.8693671,42.2630741],[-71.8694085,42.2630638],[-71.8699563,42.2629144],[-71.8705037,42.2627651],[-71.8705443,42.262755],[-71.8706205,42.2627376],[-71.8706896,42.2627218],[-71.870716,42.2627154],[-71.8708146,42.2626901],[-71.8709708,42.2626499],[-71.8712124,42.2625878],[-71.8713813,42.2633241],[-71.8715622,42.2641128],[-71.8715795,42.2641734],[-71.8715917,42.2642159],[-71.8718359,42.2649223],[-71.8720467,42.2655322],[-71.8720827,42.2656221],[-71.8721931,42.2658629],[-71.872279,42.2660504],[-71.8722877,42.2660689],[-71.872416,42.2663344],[-71.8726034,42.2667223],[-71.8727391,42.2669316],[-71.8730473,42.2672973],[-71.8733032,42.267601],[-71.8733578,42.267672],[-71.8736589,42.2680976],[-71.8736981,42.2681546],[-71.8738004,42.268315],[-71.8739506,42.2685507],[-71.8740042,42.2686458],[-71.8740988,42.2688377],[-71.8741607,42.2689631],[-71.8741773,42.2689984],[-71.8743897,42.2694546],[-71.8744298,42.2695525],[-71.8745123,42.2697884],[-71.8745803,42.2699828],[-71.8745863,42.2699995],[-71.8747101,42.2703346],[-71.874828,42.2706535],[-71.8751634,42.2719324],[-71.8750991,42.2725288],[-71.8750513,42.2729728],[-71.8750499,42.2729868],[-71.8750234,42.2732687],[-71.8749977,42.2735438],[-71.8751514,42.2737286],[-71.8753102,42.2739194],[-71.8753204,42.2739314],[-71.8754503,42.2740826],[-71.8755751,42.2742279],[-71.8757409,42.2743317],[-71.8759294,42.2744498],[-71.8759754,42.2744769],[-71.8760459,42.2745159],[-71.8762473,42.2746276],[-71.8765175,42.2748464],[-71.8766924,42.2750477],[-71.8767898,42.2751598],[-71.8768713,42.2752432],[-71.8769969,42.2753576],[-71.8770793,42.2754327],[-71.87724,42.2755253],[-71.8774422,42.2756418],[-71.8775272,42.2756856],[-71.8779332,42.2758704],[-71.8782955,42.2760353],[-71.8785946,42.2761203],[-71.8800112,42.2763487],[-71.8806875,42.2762809],[-71.8816336,42.2767434],[-71.8825498,42.2769358],[-71.8810755,42.2740486],[-71.8804773,42.2731241],[-71.8783804,42.2698836],[-71.8774276,42.2671442],[-71.8770504,42.2674615],[-71.8767304,42.2668215],[-71.8765204,42.2664115],[-71.8762504,42.2658615],[-71.8709303,42.2551315],[-71.8683603,42.2500915],[-71.8669517,42.2476264],[-71.8663603,42.2465915],[-71.8645503,42.2424815],[-71.8640505,42.2415551],[-71.8637303,42.2409615],[-71.8636403,42.2407215],[-71.8632303,42.2399615],[-71.862031,42.2375087],[-71.8620075,42.2374606],[-71.8588103,42.2309215],[-71.8585503,42.2306615],[-71.8570603,42.2277615],[-71.8569903,42.2276315],[-71.8568603,42.2273615],[-71.8566603,42.2269615],[-71.8564803,42.2269815],[-71.8561903,42.2270015],[-71.8543503,42.2271515],[-71.8539703,42.2271715],[-71.8524703,42.2273315],[-71.8502906,42.2275477],[-71.8486403,42.2277115],[-71.8473803,42.2278415],[-71.8461803,42.2279515],[-71.8458307,42.227988],[-71.8455103,42.2280215],[-71.8446517,42.2281006],[-71.8425803,42.2282915],[-71.8384703,42.2286715],[-71.8371703,42.2287915],[-71.8352603,42.2290315],[-71.8342303,42.2291515],[-71.8335503,42.2292415],[-71.8328103,42.2293315],[-71.8326503,42.2293415],[-71.8318303,42.2294315],[-71.8308303,42.2295015],[-71.8299503,42.2294215],[-71.8291003,42.2294115],[-71.8282503,42.2297015],[-71.8274603,42.2297615],[-71.8256103,42.2299215],[-71.8252503,42.2299514],[-71.8249703,42.2299814],[-71.8231003,42.2300414],[-71.8228603,42.2300014],[-71.8217703,42.2302214],[-71.8209403,42.2301814],[-71.8208903,42.2302014],[-71.8208403,42.2302514],[-71.8208203,42.2304014],[-71.8200903,42.2310114],[-71.8198303,42.2318714],[-71.8195103,42.2329214],[-71.8190903,42.2341414],[-71.8184603,42.2364514],[-71.8183403,42.2367614],[-71.8181103,42.2368914],[-71.8177403,42.2371114],[-71.8178203,42.2384114],[-71.8176603,42.2389214],[-71.8173603,42.2396114],[-71.8171103,42.2400714],[-71.816929,42.2403938],[-71.8168403,42.2405514],[-71.8161603,42.2415014],[-71.8147003,42.2435914],[-71.8145731,42.2437802],[-71.813853,42.2448484],[-71.8137974,42.2449309],[-71.8128803,42.2462914],[-71.8119603,42.2476214],[-71.8119503,42.2482714],[-71.8144103,42.2467914],[-71.8153803,42.2461914],[-71.8159303,42.2467114],[-71.8166403,42.2473514],[-71.8169003,42.2475814],[-71.8169503,42.2475914],[-71.8170103,42.2475814],[-71.8184903,42.2466414],[-71.8186103,42.2467314],[-71.8192503,42.2471714],[-71.8200403,42.2477615],[-71.8204603,42.2480915],[-71.8205414,42.2481576],[-71.8208403,42.2484015],[-71.8218103,42.2483915],[-71.8219003,42.2484615],[-71.8221303,42.2486315],[-71.8223403,42.2487515],[-71.8225003,42.2488315],[-71.8226003,42.2489115],[-71.8227803,42.2490815],[-71.8228603,42.2491815],[-71.8227103,42.2493115],[-71.8223803,42.2495615],[-71.8225103,42.2496615],[-71.8227403,42.2498215],[-71.8228303,42.2498915],[-71.8226882,42.2499704],[-71.822546,42.2500493],[-71.8226055,42.2500895],[-71.822665,42.2501297],[-71.8228646,42.250114],[-71.8230597,42.2500738],[-71.8231915,42.2500467],[-71.8231998,42.2500754],[-71.8232081,42.2501041],[-71.8232267,42.2501414],[-71.8232454,42.2501786],[-71.8232524,42.2502166],[-71.8232595,42.2502546],[-71.8233305,42.2503728],[-71.8234015,42.2504909],[-71.8235268,42.2505682],[-71.8236521,42.2506455],[-71.8236403,42.2509915],[-71.8238003,42.2509315],[-71.8240703,42.2507815],[-71.8242203,42.2507015],[-71.8244303,42.2505815],[-71.8247903,42.2503915],[-71.8249803,42.2505415],[-71.8251803,42.2507115],[-71.8259203,42.2512715],[-71.8264803,42.2517215],[-71.8271503,42.2522315],[-71.8279403,42.2528215],[-71.8272903,42.2533515],[-71.8278503,42.2536815],[-71.8272425,42.2541985]]]}},{"type":"Feature","properties":{"POSTCODE":"01609","PC_NAME":"WORCESTER","PC_TYPE":"NON UNIQUE","PA_NAME":"WORCESTER","PA_FIPS":"82000","CITY_TOWN":"WORCESTER","COUNTY":"WORCESTER","AREA_SQMI":3.79605572,"SHAPE_AREA":9831739.16949,"SHAPE_LEN":21903.2901431},"geometry":{"type":"Polygon","coordinates":[[[-71.7996204,42.2713214],[-71.7996104,42.2714814],[-71.8,42.2721514],[-71.8003405,42.2734014],[-71.8004905,42.2742714],[-71.8007105,42.2753814],[-71.8019505,42.2752114],[-71.8022105,42.2763114],[-71.8022605,42.2765514],[-71.8022605,42.2769214],[-71.8021905,42.2771214],[-71.8024105,42.2773114],[-71.8034005,42.2783014],[-71.8036705,42.2785714],[-71.8040905,42.2790014],[-71.8042305,42.2791714],[-71.8051205,42.2788914],[-71.8052905,42.2788414],[-71.8055005,42.2789214],[-71.8073505,42.2787814],[-71.807875,42.2785566],[-71.8079058,42.2785509],[-71.8080307,42.2785277],[-71.8082345,42.2785211],[-71.8084412,42.2787835],[-71.8085705,42.2788814],[-71.8085005,42.2792414],[-71.8084905,42.2793914],[-71.8085005,42.2795214],[-71.8085005,42.2796414],[-71.8085105,42.2800314],[-71.8085105,42.2801514],[-71.8085105,42.2803114],[-71.8085305,42.2808914],[-71.8085505,42.2816314],[-71.8085905,42.2826414],[-71.8090752,42.2833505],[-71.8090689,42.2833738],[-71.8090237,42.2836109],[-71.8090048,42.2837218],[-71.8089714,42.283922],[-71.8089438,42.2840492],[-71.8089221,42.2842711],[-71.8089449,42.2846015],[-71.808959,42.2846605],[-71.8089764,42.2847614],[-71.8090084,42.2849474],[-71.8090582,42.2851306],[-71.8091189,42.2852914],[-71.8091458,42.2853629],[-71.8091843,42.2853684],[-71.8092393,42.2853763],[-71.8092722,42.2853816],[-71.8093849,42.2854017],[-71.8095789,42.2854362],[-71.8097068,42.2854678],[-71.8097418,42.285479],[-71.8098096,42.2854986],[-71.8100512,42.2855501],[-71.810331,42.2855701],[-71.8104842,42.285581],[-71.8106967,42.2856372],[-71.8109091,42.2856934],[-71.8110494,42.2856913],[-71.8113207,42.2857231],[-71.8115059,42.2857448],[-71.811554,42.2857516],[-71.8117999,42.2857927],[-71.8120054,42.285827],[-71.8120384,42.285833],[-71.8122927,42.2858843],[-71.8125173,42.2859296],[-71.8133834,42.2859329],[-71.8134835,42.2859374],[-71.8135836,42.2859418],[-71.8139017,42.2860694],[-71.8145045,42.2863375],[-71.8147803,42.2864954],[-71.8149268,42.2866137],[-71.8150436,42.2867309],[-71.8151048,42.2868064],[-71.8151561,42.2868856],[-71.8152074,42.2869649],[-71.8152451,42.2870901],[-71.8153352,42.287389],[-71.8153718,42.2877757],[-71.8153735,42.2878626],[-71.8153884,42.2879842],[-71.815395,42.2880855],[-71.8153954,42.2881237],[-71.8154127,42.2883103],[-71.8154279,42.2884745],[-71.815397,42.2886752],[-71.8154016,42.2889376],[-71.815458,42.2891548],[-71.8154821,42.2893067],[-71.8155307,42.2897722],[-71.8155512,42.2902004],[-71.8155512,42.2904909],[-71.8155634,42.2906089],[-71.815602,42.290629],[-71.8156406,42.2906491],[-71.8158373,42.2907355],[-71.8159905,42.2908114],[-71.8160705,42.2911614],[-71.8162124,42.2910693],[-71.8165691,42.2906111],[-71.8166299,42.2904368],[-71.8167605,42.2902684],[-71.8168135,42.2901999],[-71.816934,42.2900444],[-71.8170793,42.2899017],[-71.8171067,42.2899011],[-71.8171341,42.2899006],[-71.8171825,42.2899164],[-71.8173377,42.2899525],[-71.8174932,42.2899871],[-71.8180788,42.2896218],[-71.8181405,42.2896314],[-71.8188246,42.2897409],[-71.8188425,42.2897432],[-71.8189348,42.289755],[-71.8189612,42.2897583],[-71.8195208,42.2898299],[-71.8196557,42.2898471],[-71.8200805,42.2899014],[-71.8204003,42.2899423],[-71.8214105,42.2900714],[-71.8219529,42.2905446],[-71.8224953,42.2910179],[-71.8225427,42.2910437],[-71.8225505,42.2911614],[-71.8225305,42.2912814],[-71.8224955,42.2914914],[-71.8224605,42.2917014],[-71.8224743,42.2919074],[-71.822488,42.2921135],[-71.8225091,42.2924297],[-71.8228513,42.292609],[-71.822794,42.2927749],[-71.8235845,42.2939584],[-71.8239165,42.2943957],[-71.8239742,42.2945476],[-71.8240174,42.294661],[-71.824082,42.2947864],[-71.8242905,42.2953614],[-71.8243305,42.2957214],[-71.8241705,42.2960314],[-71.8241505,42.2961714],[-71.8242105,42.2962914],[-71.8243405,42.2963514],[-71.8247705,42.2964414],[-71.8252005,42.2967214],[-71.8255205,42.2969414],[-71.8257355,42.2972514],[-71.8259105,42.2971014],[-71.8263305,42.2972014],[-71.8263222,42.2973595],[-71.8269088,42.2974675],[-71.8276648,42.2976068],[-71.8288542,42.2978259],[-71.8294405,42.2980814],[-71.8309905,42.2982614],[-71.8309776,42.2986093],[-71.8318772,42.2987071],[-71.8320832,42.2987295],[-71.8323244,42.2990949],[-71.8321599,42.2994468],[-71.8321214,42.2995208],[-71.8320266,42.2996858],[-71.8319526,42.2998146],[-71.8319635,42.2998316],[-71.8319746,42.2998484],[-71.8319326,42.3007499],[-71.8318906,42.3016514],[-71.8338306,42.3019114],[-71.8340779,42.3022407],[-71.8343252,42.3025701],[-71.8342394,42.3026185],[-71.834096,42.3026994],[-71.833977,42.3027566],[-71.8338821,42.3027946],[-71.8338487,42.302808],[-71.8338372,42.302844],[-71.8338093,42.302931],[-71.8337822,42.3030344],[-71.8337701,42.3030933],[-71.8337603,42.3031407],[-71.8337436,42.3032075],[-71.8337283,42.3032595],[-71.83369,42.3034713],[-71.8336873,42.3035097],[-71.8336814,42.3035851],[-71.8336819,42.303601],[-71.8334757,42.3042408],[-71.8334312,42.3042987],[-71.833404,42.3043432],[-71.8332823,42.3045998],[-71.833245,42.3046783],[-71.8331825,42.3048484],[-71.8330871,42.3052043],[-71.833052,42.3053353],[-71.8330314,42.3054123],[-71.8330068,42.3055342],[-71.8329683,42.3058124],[-71.8329385,42.3060288],[-71.8334729,42.3059517],[-71.8342554,42.3058389],[-71.8353853,42.306123],[-71.836379,42.305825],[-71.8372106,42.3054631],[-71.837375,42.3053476],[-71.8374891,42.3052762],[-71.8375419,42.3052441],[-71.8376581,42.3051783],[-71.8378307,42.3050806],[-71.8378907,42.3050493],[-71.8381902,42.3049055],[-71.838476,42.3047702],[-71.8385081,42.3050443],[-71.8385417,42.3053319],[-71.8385445,42.3053591],[-71.8385661,42.3056009],[-71.8385906,42.305875],[-71.8385932,42.3059122],[-71.8386,42.3060446],[-71.8388606,42.3074314],[-71.8395492,42.308393],[-71.8427831,42.306419],[-71.8434637,42.3060036],[-71.8454006,42.3048214],[-71.8590623,42.2965038],[-71.8591905,42.2957214],[-71.8592972,42.2950703],[-71.8586887,42.2934783],[-71.8581093,42.2919623],[-71.8579905,42.2916514],[-71.8575915,42.2906075],[-71.8572605,42.2897414],[-71.8570182,42.2888727],[-71.8569199,42.2887977],[-71.8568704,42.2887623],[-71.8564785,42.2884793],[-71.8562331,42.2883464],[-71.8560948,42.288295],[-71.8560626,42.288283],[-71.8560114,42.2882623],[-71.8558674,42.2881995],[-71.8557321,42.2881404],[-71.8556984,42.2881264],[-71.8555645,42.2880737],[-71.8554271,42.2880196],[-71.8553869,42.2880028],[-71.8552797,42.2879551],[-71.8550914,42.2878713],[-71.8550806,42.2878678],[-71.8548927,42.2878067],[-71.8548199,42.2877913],[-71.854772,42.2877823],[-71.8544303,42.2877081],[-71.8541463,42.2876462],[-71.8541025,42.2876356],[-71.8538843,42.2875777],[-71.8536879,42.2875255],[-71.8535472,42.2875996],[-71.8533867,42.2876841],[-71.8533467,42.287704],[-71.8532925,42.2877296],[-71.8532479,42.2877506],[-71.8532268,42.2877608],[-71.8529649,42.2878916],[-71.8526702,42.2880389],[-71.8525817,42.2880779],[-71.852517,42.2881027],[-71.8524976,42.2881102],[-71.8522094,42.2879077],[-71.8519212,42.2877051],[-71.8515007,42.2874969],[-71.8507896,42.2871448],[-71.8497314,42.2870952],[-71.8497175,42.2870954],[-71.8495672,42.2870862],[-71.8494427,42.2870691],[-71.8493472,42.2870515],[-71.8488951,42.2869455],[-71.8484888,42.2868502],[-71.8484451,42.2868677],[-71.8483937,42.2868901],[-71.8482169,42.286973],[-71.8479604,42.2870933],[-71.8478551,42.2871507],[-71.8475707,42.2873284],[-71.847559,42.2873357],[-71.8473448,42.2874696],[-71.8473307,42.2874655],[-71.8468315,42.2869491],[-71.846792,42.2869151],[-71.8467124,42.2868429],[-71.8466913,42.2868273],[-71.8466232,42.2867725],[-71.8466048,42.2867563],[-71.8465948,42.2867492],[-71.8465119,42.286684],[-71.8464401,42.286621],[-71.8464084,42.2865898],[-71.8463417,42.2865283],[-71.8462646,42.2864485],[-71.8462605,42.2852414],[-71.8422505,42.2853014],[-71.8422105,42.2852114],[-71.8417805,42.2841814],[-71.8416905,42.2838564],[-71.8416005,42.2835314],[-71.8418793,42.2835585],[-71.8421582,42.2835856],[-71.842381,42.2833732],[-71.8426584,42.2831904],[-71.843059,42.2829263],[-71.8433727,42.2825909],[-71.8435275,42.2824164],[-71.8435561,42.2823917],[-71.8436333,42.2823249],[-71.8439391,42.2818483],[-71.8440284,42.2815417],[-71.8440516,42.2814622],[-71.8441226,42.2812184],[-71.8442437,42.2809539],[-71.844336,42.2808116],[-71.8443483,42.2807927],[-71.8445042,42.2807614],[-71.8447011,42.280722],[-71.8447836,42.2807091],[-71.8449948,42.2806849],[-71.8451645,42.2806655],[-71.8452356,42.2805855],[-71.8453298,42.2804797],[-71.8453775,42.2804296],[-71.8455091,42.2803009],[-71.8456102,42.280202],[-71.8457004,42.2801137],[-71.8457737,42.2800487],[-71.8458539,42.2799843],[-71.8460521,42.2798252],[-71.846171,42.2797482],[-71.8456104,42.2788214],[-71.8453804,42.2788014],[-71.8450504,42.2787214],[-71.84486,42.2791703],[-71.8445164,42.2790197],[-71.8443604,42.2789514],[-71.8440311,42.2788071],[-71.8440305,42.2788379],[-71.8440206,42.2794244],[-71.8440292,42.2796889],[-71.8427504,42.2791814],[-71.8424104,42.2796914],[-71.8423004,42.2799514],[-71.8422604,42.2801414],[-71.842196,42.2805315],[-71.8411204,42.2804314],[-71.8402604,42.2803514],[-71.8400703,42.280544],[-71.839773,42.2808452],[-71.839531,42.2810255],[-71.8387224,42.2814556],[-71.8380086,42.2818265],[-71.8378853,42.2821102],[-71.8377619,42.2823939],[-71.8376836,42.2827067],[-71.8375656,42.2831781],[-71.8375387,42.2834998],[-71.8375614,42.2837871],[-71.8375712,42.2839113],[-71.8371845,42.2839182],[-71.8367719,42.2839256],[-71.8367199,42.2839252],[-71.8366638,42.2839232],[-71.8366088,42.2839214],[-71.836559,42.2839209],[-71.8363166,42.2839247],[-71.8360593,42.2839288],[-71.8359795,42.2839269],[-71.8358785,42.2839204],[-71.8357945,42.283915],[-71.835749,42.2839131],[-71.8357339,42.2839128],[-71.8356639,42.2839115],[-71.8356307,42.2839109],[-71.8355003,42.283917],[-71.8354181,42.2839263],[-71.8353258,42.2839367],[-71.8351752,42.2839422],[-71.8349513,42.2839335],[-71.8348029,42.2839278],[-71.8344789,42.2839484],[-71.8343825,42.283937],[-71.8341522,42.2838813],[-71.8341186,42.2838688],[-71.8339781,42.283833],[-71.8337815,42.2838046],[-71.8336905,42.2837914],[-71.8326472,42.2833365],[-71.8324262,42.2835161],[-71.8322086,42.2837052],[-71.8321034,42.2838043],[-71.8316458,42.28405],[-71.8315787,42.2840657],[-71.8312814,42.2841479],[-71.8310913,42.2842004],[-71.8310638,42.2842084],[-71.8309834,42.2842331],[-71.8308653,42.2842694],[-71.830761,42.2842954],[-71.8305862,42.2843292],[-71.8304738,42.2843509],[-71.8304549,42.2843543],[-71.8303076,42.2843798],[-71.8301697,42.2844037],[-71.8301411,42.2843318],[-71.8301266,42.2842974],[-71.8300532,42.2840135],[-71.8300324,42.2838173],[-71.8300253,42.2837505],[-71.8300228,42.2837291],[-71.8300147,42.283666],[-71.8299718,42.2833305],[-71.8298842,42.2830659],[-71.8298518,42.2829679],[-71.8297353,42.2827604],[-71.8294976,42.2824769],[-71.8294593,42.2824455],[-71.8292916,42.2823005],[-71.8292816,42.2822919],[-71.8292246,42.2822461],[-71.8291053,42.2821574],[-71.8290429,42.282111],[-71.8289867,42.2820721],[-71.8288235,42.2819672],[-71.8286892,42.2818809],[-71.8284348,42.2822962],[-71.8281805,42.2827114],[-71.8281205,42.2826714],[-71.8276805,42.2825714],[-71.8276205,42.2825214],[-71.8276005,42.2824614],[-71.8276105,42.2822314],[-71.8275905,42.2821014],[-71.8275205,42.2819414],[-71.8275205,42.2819314],[-71.8275205,42.2818414],[-71.8275605,42.2816014],[-71.8276305,42.2813514],[-71.8281905,42.2795814],[-71.8274705,42.2794414],[-71.8269105,42.2793014],[-71.8259005,42.2792314],[-71.8256905,42.2792214],[-71.8254421,42.2782905],[-71.8255205,42.2776414],[-71.8255904,42.2770614],[-71.8241505,42.2771814],[-71.8227805,42.2770314],[-71.8225605,42.2770614],[-71.8223605,42.2771714],[-71.8223005,42.2772314],[-71.8222505,42.2773414],[-71.8212205,42.2768714],[-71.8211759,42.2767281],[-71.8209905,42.2761313],[-71.8203844,42.2754908],[-71.8199613,42.2750335],[-71.8198936,42.2749945],[-71.8195882,42.2748184],[-71.8189139,42.2744296],[-71.8184841,42.2739327],[-71.818348,42.2735904],[-71.8183404,42.2735714],[-71.8182488,42.274276],[-71.8175804,42.2742314],[-71.8169804,42.2741914],[-71.8159704,42.2749014],[-71.8155104,42.2746114],[-71.8154704,42.2744714],[-71.8154004,42.2744114],[-71.8152704,42.2743514],[-71.8148104,42.2743114],[-71.8147204,42.2743214],[-71.8145604,42.2743714],[-71.8142504,42.2745914],[-71.8141004,42.2746314],[-71.8139904,42.2746514],[-71.8134904,42.2746214],[-71.8133804,42.2745914],[-71.8125804,42.2742614],[-71.8131004,42.2737514],[-71.8132004,42.2736314],[-71.8135204,42.2732814],[-71.8142504,42.2725514],[-71.8146304,42.2721514],[-71.8150304,42.2717414],[-71.8155404,42.2712014],[-71.8157204,42.2710114],[-71.8161504,42.2705814],[-71.8170004,42.2695714],[-71.8171504,42.2692114],[-71.8172704,42.2688514],[-71.8173204,42.2686014],[-71.8174104,42.2681514],[-71.8174804,42.2679114],[-71.8175804,42.2676414],[-71.8177204,42.2673414],[-71.8182204,42.2663614],[-71.8184004,42.2660214],[-71.8186704,42.2655214],[-71.8190604,42.2647914],[-71.8191304,42.2646614],[-71.8194604,42.2640214],[-71.8196204,42.2637114],[-71.8197704,42.2633814],[-71.8201704,42.2625414],[-71.8204404,42.2620014],[-71.8198604,42.2612614],[-71.8184204,42.2608714],[-71.8176404,42.2606714],[-71.8171504,42.2605814],[-71.8162604,42.2605314],[-71.8149404,42.2605614],[-71.8135904,42.2605814],[-71.8122104,42.2605914],[-71.8110104,42.2606114],[-71.8106904,42.2606214],[-71.8099704,42.2606214],[-71.8096604,42.2606014],[-71.8094004,42.2605814],[-71.8088904,42.2605214],[-71.8077904,42.2603714],[-71.8072804,42.2602814],[-71.8066904,42.2601714],[-71.8064904,42.2601214],[-71.8058604,42.2599814],[-71.8056904,42.2599314],[-71.8055404,42.2598514],[-71.8051604,42.2596014],[-71.8047104,42.2599314],[-71.8045104,42.2601114],[-71.8043304,42.2602814],[-71.8034804,42.2611414],[-71.8026904,42.2623114],[-71.8025104,42.2626314],[-71.8022204,42.2633314],[-71.8021604,42.2634814],[-71.8044404,42.2636314],[-71.8043404,42.2642814],[-71.8043004,42.2647014],[-71.8041904,42.2650414],[-71.8033704,42.2661014],[-71.8024404,42.2659114],[-71.8010204,42.2663214],[-71.8009504,42.2666014],[-71.8008604,42.2670214],[-71.8006304,42.2678714],[-71.8003404,42.2690814],[-71.8003604,42.2692114],[-71.8002404,42.2696614],[-71.8000504,42.2702514],[-71.7996204,42.2713214]]]}},{"type":"Feature","properties":{"POSTCODE":"01610","PC_NAME":"WORCESTER","PC_TYPE":"NON UNIQUE","PA_NAME":"WORCESTER","PA_FIPS":"82000","CITY_TOWN":"WORCESTER","COUNTY":"WORCESTER","AREA_SQMI":2.16157829,"SHAPE_AREA":5598462.08018,"SHAPE_LEN":17046.6675428},"geometry":{"type":"Polygon","coordinates":[[[-71.8198604,42.2612614],[-71.8207004,42.2614614],[-71.8208604,42.2611714],[-71.8209304,42.2610414],[-71.8215704,42.2598514],[-71.8221604,42.2587514],[-71.8227304,42.2576514],[-71.8230903,42.2570114],[-71.8231903,42.2568914],[-71.8237203,42.2564614],[-71.8243103,42.2559514],[-71.8250003,42.2553514],[-71.8251403,42.2552314],[-71.8260303,42.2544615],[-71.8267103,42.2538515],[-71.8272425,42.2541985],[-71.8278503,42.2536815],[-71.8272903,42.2533515],[-71.8279403,42.2528215],[-71.8271503,42.2522315],[-71.8264803,42.2517215],[-71.8259203,42.2512715],[-71.8251803,42.2507115],[-71.8249803,42.2505415],[-71.8247903,42.2503915],[-71.8244303,42.2505815],[-71.8242203,42.2507015],[-71.8240703,42.2507815],[-71.8238003,42.2509315],[-71.8236403,42.2509915],[-71.8236521,42.2506455],[-71.8235268,42.2505682],[-71.8234015,42.2504909],[-71.8233305,42.2503728],[-71.8232595,42.2502546],[-71.8232524,42.2502166],[-71.8232454,42.2501786],[-71.8232267,42.2501414],[-71.8232081,42.2501041],[-71.8231998,42.2500754],[-71.8231915,42.2500467],[-71.8230597,42.2500738],[-71.8228646,42.250114],[-71.822665,42.2501297],[-71.8226055,42.2500895],[-71.822546,42.2500493],[-71.8226882,42.2499704],[-71.8228303,42.2498915],[-71.8227403,42.2498215],[-71.8225103,42.2496615],[-71.8223803,42.2495615],[-71.8227103,42.2493115],[-71.8228603,42.2491815],[-71.8227803,42.2490815],[-71.8226003,42.2489115],[-71.8225003,42.2488315],[-71.8223403,42.2487515],[-71.8221303,42.2486315],[-71.8219003,42.2484615],[-71.8218103,42.2483915],[-71.8208403,42.2484015],[-71.8205414,42.2481576],[-71.8204603,42.2480915],[-71.8200403,42.2477615],[-71.8192503,42.2471714],[-71.8186103,42.2467314],[-71.8184903,42.2466414],[-71.8170103,42.2475814],[-71.8169503,42.2475914],[-71.8169003,42.2475814],[-71.8166403,42.2473514],[-71.8159303,42.2467114],[-71.8153803,42.2461914],[-71.8144103,42.2467914],[-71.8119503,42.2482714],[-71.8119603,42.2476214],[-71.8128803,42.2462914],[-71.8137974,42.2449309],[-71.813853,42.2448484],[-71.8145731,42.2437802],[-71.8147003,42.2435914],[-71.8161603,42.2415014],[-71.8168403,42.2405514],[-71.816929,42.2403938],[-71.8171103,42.2400714],[-71.8173603,42.2396114],[-71.8176603,42.2389214],[-71.8178203,42.2384114],[-71.8177403,42.2371114],[-71.8181103,42.2368914],[-71.8183403,42.2367614],[-71.8184603,42.2364514],[-71.8190903,42.2341414],[-71.8195103,42.2329214],[-71.8198303,42.2318714],[-71.8200903,42.2310114],[-71.8208203,42.2304014],[-71.8208403,42.2302514],[-71.8208903,42.2302014],[-71.8194903,42.2305314],[-71.8174599,42.2307265],[-71.8168283,42.2307872],[-71.8154303,42.2309214],[-71.8140207,42.2310496],[-71.8138903,42.2310614],[-71.8134803,42.2307914],[-71.8131103,42.2305514],[-71.8127903,42.2308114],[-71.8122903,42.2312114],[-71.8119203,42.2312514],[-71.8114803,42.2312914],[-71.8106903,42.2313514],[-71.8101003,42.2314014],[-71.8094251,42.2298964],[-71.8091099,42.229849],[-71.8091716,42.2303679],[-71.8090628,42.2303564],[-71.8087303,42.2303214],[-71.8085403,42.2303014],[-71.8082634,42.230252],[-71.8081395,42.2303171],[-71.80796,42.2304115],[-71.8070785,42.2307921],[-71.806523,42.2309724],[-71.8063883,42.231012],[-71.8062091,42.2310468],[-71.8061883,42.2310525],[-71.8057231,42.2310663],[-71.8055103,42.2310214],[-71.8056203,42.2309314],[-71.8058203,42.2307614],[-71.8060803,42.2305714],[-71.8063403,42.2303614],[-71.8062003,42.2302514],[-71.8060703,42.2301314],[-71.8059703,42.2299914],[-71.8058803,42.2297914],[-71.8058303,42.2295814],[-71.8057403,42.2292033],[-71.8052203,42.2294014],[-71.8043803,42.2297214],[-71.8041403,42.2298014],[-71.8031203,42.2301314],[-71.8018403,42.2306114],[-71.8014803,42.2307214],[-71.8013303,42.2307514],[-71.8010003,42.2307714],[-71.8017903,42.2323214],[-71.8008965,42.232447],[-71.8000103,42.2325714],[-71.8000303,42.2327814],[-71.8000503,42.2329914],[-71.80014,42.2332246],[-71.8002003,42.2333814],[-71.8004903,42.2336114],[-71.8005603,42.2338214],[-71.8009603,42.2342214],[-71.8016103,42.2349314],[-71.8018903,42.2353814],[-71.8007803,42.2361514],[-71.8015103,42.2367714],[-71.8023803,42.2376214],[-71.8033403,42.2389514],[-71.8037103,42.2394914],[-71.8038203,42.2396714],[-71.8039403,42.2398914],[-71.8040203,42.2401614],[-71.8040503,42.2403814],[-71.8041203,42.2408614],[-71.8041703,42.2410814],[-71.8037903,42.2420814],[-71.8032003,42.2425414],[-71.8030203,42.2425814],[-71.8019659,42.2421949],[-71.8019265,42.2422194],[-71.8014403,42.2425214],[-71.8007803,42.2429314],[-71.8006303,42.2430514],[-71.8004903,42.2432014],[-71.8002503,42.2435214],[-71.7996303,42.2430414],[-71.7983603,42.2427614],[-71.7973003,42.2425914],[-71.7962503,42.2423514],[-71.7953403,42.2421414],[-71.7948203,42.2420114],[-71.7933503,42.2416914],[-71.7926703,42.2415314],[-71.7913403,42.2412114],[-71.7911503,42.2419614],[-71.7911103,42.2423014],[-71.7911103,42.2424714],[-71.7911803,42.2429914],[-71.7918903,42.2460514],[-71.7922303,42.2476314],[-71.7924103,42.2484114],[-71.7924403,42.2486614],[-71.7934003,42.2491814],[-71.793505,42.2510721],[-71.7945003,42.2511114],[-71.7952603,42.2511414],[-71.7953303,42.2512714],[-71.7955203,42.2516314],[-71.7960103,42.2523314],[-71.7969203,42.2536514],[-71.7970003,42.2537814],[-71.7970903,42.2539014],[-71.7972203,42.2540914],[-71.7972703,42.2541714],[-71.7973303,42.2542414],[-71.7974503,42.2543914],[-71.7975203,42.2545914],[-71.7974903,42.2548714],[-71.7978103,42.2550514],[-71.7978904,42.2553214],[-71.7979104,42.2556814],[-71.7979804,42.2567314],[-71.7987004,42.2567014],[-71.7989104,42.2567014],[-71.7997104,42.2567114],[-71.8009904,42.2571914],[-71.8014604,42.2575114],[-71.8018704,42.2572514],[-71.8014004,42.2569214],[-71.8027204,42.2560814],[-71.8037104,42.2563214],[-71.8046703,42.2557414],[-71.8040303,42.2552514],[-71.8030903,42.2544214],[-71.8030303,42.2543414],[-71.8029903,42.2542314],[-71.8027103,42.2527114],[-71.8026803,42.2520814],[-71.8056403,42.2520714],[-71.8058421,42.2517496],[-71.8060439,42.2514277],[-71.8060559,42.2514301],[-71.8061466,42.2514481],[-71.8063007,42.2514917],[-71.8064341,42.2515413],[-71.8064921,42.2515629],[-71.8065134,42.2516009],[-71.8065347,42.2516389],[-71.8065637,42.2516556],[-71.8067187,42.2517355],[-71.8068672,42.251809],[-71.806945,42.2518498],[-71.8071937,42.2520047],[-71.807238,42.2520498],[-71.8072537,42.2520741],[-71.8072543,42.2520747],[-71.8074085,42.2522366],[-71.8074386,42.2522795],[-71.8076403,42.2528814],[-71.8078803,42.2531514],[-71.8079703,42.2528814],[-71.8079903,42.2526914],[-71.8086007,42.2530646],[-71.8088203,42.2532714],[-71.8089687,42.2534112],[-71.8098503,42.2542414],[-71.8116603,42.2559114],[-71.8109303,42.2562914],[-71.8104904,42.2565314],[-71.8097304,42.2569214],[-71.8090304,42.2564514],[-71.8078703,42.2556214],[-71.8066304,42.2565914],[-71.8060604,42.2569814],[-71.8066004,42.2575314],[-71.8070204,42.2579614],[-71.8073404,42.2581914],[-71.8065904,42.2585914],[-71.8064004,42.2587014],[-71.8059504,42.2590114],[-71.8051604,42.2596014],[-71.8055404,42.2598514],[-71.8056904,42.2599314],[-71.8058604,42.2599814],[-71.8064904,42.2601214],[-71.8066904,42.2601714],[-71.8072804,42.2602814],[-71.8077904,42.2603714],[-71.8088904,42.2605214],[-71.8094004,42.2605814],[-71.8096604,42.2606014],[-71.8099704,42.2606214],[-71.8106904,42.2606214],[-71.8110104,42.2606114],[-71.8122104,42.2605914],[-71.8135904,42.2605814],[-71.8149404,42.2605614],[-71.8162604,42.2605314],[-71.8171504,42.2605814],[-71.8176404,42.2606714],[-71.8184204,42.2608714],[-71.8198604,42.2612614]]]}},{"type":"Feature","properties":{"POSTCODE":"01607","PC_NAME":"WORCESTER","PC_TYPE":"NON UNIQUE","PA_NAME":"WORCESTER","PA_FIPS":"82000","CITY_TOWN":"WORCESTER","COUNTY":"WORCESTER","AREA_SQMI":2.56402386,"SHAPE_AREA":6640791.30301,"SHAPE_LEN":12255.7310344},"geometry":{"type":"Polygon","coordinates":[[[-71.7913403,42.2412114],[-71.7926703,42.2415314],[-71.7933503,42.2416914],[-71.7948203,42.2420114],[-71.7953403,42.2421414],[-71.7962503,42.2423514],[-71.7973003,42.2425914],[-71.7983603,42.2427614],[-71.7996303,42.2430414],[-71.8002503,42.2435214],[-71.8004903,42.2432014],[-71.8006303,42.2430514],[-71.8007803,42.2429314],[-71.8014403,42.2425214],[-71.8019265,42.2422194],[-71.8019659,42.2421949],[-71.8030203,42.2425814],[-71.8032003,42.2425414],[-71.8037903,42.2420814],[-71.8041703,42.2410814],[-71.8041203,42.2408614],[-71.8040503,42.2403814],[-71.8040203,42.2401614],[-71.8039403,42.2398914],[-71.8038203,42.2396714],[-71.8037103,42.2394914],[-71.8033403,42.2389514],[-71.8023803,42.2376214],[-71.8015103,42.2367714],[-71.8007803,42.2361514],[-71.8018903,42.2353814],[-71.8016103,42.2349314],[-71.8009603,42.2342214],[-71.8005603,42.2338214],[-71.8004903,42.2336114],[-71.8002003,42.2333814],[-71.80014,42.2332246],[-71.8000503,42.2329914],[-71.8000303,42.2327814],[-71.8000103,42.2325714],[-71.8008965,42.232447],[-71.8017903,42.2323214],[-71.8010003,42.2307714],[-71.8013303,42.2307514],[-71.8014803,42.2307214],[-71.8018403,42.2306114],[-71.8031203,42.2301314],[-71.8041403,42.2298014],[-71.8043803,42.2297214],[-71.8052203,42.2294014],[-71.8057403,42.2292033],[-71.8058303,42.2295814],[-71.8058803,42.2297914],[-71.8059703,42.2299914],[-71.8060703,42.2301314],[-71.8062003,42.2302514],[-71.8063403,42.2303614],[-71.8060803,42.2305714],[-71.8058203,42.2307614],[-71.8056203,42.2309314],[-71.8055103,42.2310214],[-71.8057231,42.2310663],[-71.8061883,42.2310525],[-71.8062091,42.2310468],[-71.8063883,42.231012],[-71.806523,42.2309724],[-71.8070785,42.2307921],[-71.80796,42.2304115],[-71.8081395,42.2303171],[-71.8082634,42.230252],[-71.8085403,42.2303014],[-71.8087303,42.2303214],[-71.8090628,42.2303564],[-71.8091716,42.2303679],[-71.8091099,42.229849],[-71.8090747,42.2298294],[-71.8090183,42.2297981],[-71.8089767,42.2297736],[-71.8089536,42.2297592],[-71.8087639,42.2296415],[-71.808675,42.2295626],[-71.8085105,42.2294167],[-71.8081467,42.228962],[-71.8088576,42.2286316],[-71.8085488,42.2279434],[-71.8084403,42.2277014],[-71.8067203,42.2238514],[-71.8043136,42.2213298],[-71.8040003,42.2210014],[-71.8036203,42.2205014],[-71.8030703,42.2192514],[-71.8015703,42.2170914],[-71.8010664,42.2162451],[-71.8005403,42.2153614],[-71.7994403,42.2136514],[-71.7988403,42.2125814],[-71.7980703,42.2116114],[-71.7979403,42.2112414],[-71.7976903,42.2109314],[-71.7972803,42.2102914],[-71.7972003,42.2101214],[-71.7950503,42.2110414],[-71.7943303,42.2113714],[-71.7926903,42.2120914],[-71.7858603,42.2151214],[-71.7856703,42.2151914],[-71.7855952,42.2152203],[-71.7854663,42.2152699],[-71.7852803,42.2153414],[-71.7848303,42.2155314],[-71.7847103,42.2155814],[-71.7846303,42.2156214],[-71.7836603,42.2160514],[-71.7833003,42.2162014],[-71.7831203,42.2162914],[-71.7828603,42.2163914],[-71.7803003,42.2173614],[-71.7798003,42.2176114],[-71.7787903,42.2182014],[-71.7759503,42.2194214],[-71.7755903,42.2201114],[-71.7762289,42.2204042],[-71.7762744,42.2204614],[-71.7764355,42.2206287],[-71.7764638,42.220658],[-71.7765088,42.2207019],[-71.7765837,42.2207704],[-71.7766354,42.2208178],[-71.7765475,42.2209372],[-71.776453,42.2210655],[-71.7764401,42.2210835],[-71.7763058,42.2212747],[-71.7761487,42.2214983],[-71.7761172,42.2215459],[-71.7756903,42.2222284],[-71.7756354,42.2223211],[-71.7754727,42.2226331],[-71.7752539,42.2230524],[-71.7752001,42.2231751],[-71.7750328,42.2236381],[-71.7748883,42.224038],[-71.7747635,42.224801],[-71.7746387,42.2255639],[-71.7745328,42.2257427],[-71.7744102,42.2259498],[-71.7743749,42.2260051],[-71.7742818,42.2261412],[-71.7746395,42.2267433],[-71.7750674,42.2274637],[-71.7753399,42.2279224],[-71.7756643,42.2284684],[-71.7760403,42.2291014],[-71.7764405,42.2297752],[-71.7757009,42.2305252],[-71.7757925,42.2307036],[-71.7760577,42.2313794],[-71.7762637,42.2319051],[-71.7762858,42.2319619],[-71.7763426,42.2321831],[-71.7763568,42.2322864],[-71.7763636,42.2323515],[-71.7763754,42.2325155],[-71.7763815,42.2326012],[-71.7763827,42.2326214],[-71.7764184,42.2333156],[-71.7764388,42.2337131],[-71.7764551,42.2340311],[-71.776456,42.2340535],[-71.7764727,42.2346329],[-71.7764911,42.2352681],[-71.7764897,42.2353574],[-71.7764846,42.2354415],[-71.7764822,42.2354811],[-71.7766393,42.2359914],[-71.7768043,42.2365272],[-71.7768126,42.2365558],[-71.7768255,42.2366026],[-71.7768468,42.2366978],[-71.7768618,42.2367848],[-71.7768661,42.2368096],[-71.7768695,42.2368307],[-71.7769279,42.2372178],[-71.7769837,42.2375874],[-71.7769857,42.2376014],[-71.7769906,42.2376375],[-71.7769943,42.2376649],[-71.7770109,42.237777],[-71.7770139,42.2380469],[-71.7769709,42.2383908],[-71.7769447,42.2386],[-71.7795425,42.2391007],[-71.7821403,42.2396014],[-71.7826783,42.2396732],[-71.7832625,42.2397512],[-71.7833303,42.2397652],[-71.7834449,42.2397863],[-71.7835014,42.2396854],[-71.7836002,42.2395195],[-71.7837267,42.2393506],[-71.7840195,42.2390354],[-71.7841919,42.2388498],[-71.7842952,42.2387532],[-71.7845063,42.2385822],[-71.7846416,42.2384726],[-71.7846839,42.2384403],[-71.7848398,42.2383272],[-71.7849741,42.2382297],[-71.7850219,42.2381925],[-71.7850861,42.2381424],[-71.7851184,42.2381161],[-71.7851694,42.2380728],[-71.7852211,42.2380289],[-71.7852546,42.2380017],[-71.785746,42.2376196],[-71.7862204,42.2372508],[-71.7871786,42.2377878],[-71.7881368,42.2383247],[-71.7881887,42.2383885],[-71.7882405,42.2384524],[-71.7882683,42.2390062],[-71.788289,42.2395383],[-71.788679,42.2396081],[-71.7899747,42.2398399],[-71.7916603,42.2401414],[-71.7914603,42.2408314],[-71.7913403,42.2412114]]]}},{"type":"Feature","properties":{"POSTCODE":"01608","PC_NAME":"WORCESTER","PC_TYPE":"NON UNIQUE","PA_NAME":"WORCESTER","PA_FIPS":"82000","CITY_TOWN":"WORCESTER","COUNTY":"WORCESTER","AREA_SQMI":0.44601513,"SHAPE_AREA":1155173.88852,"SHAPE_LEN":8278.86512111},"geometry":{"type":"Polygon","coordinates":[[[-71.7950004,42.2636714],[-71.7950604,42.2639914],[-71.7951204,42.2642914],[-71.7953004,42.2650714],[-71.7954704,42.2659014],[-71.7955704,42.2664414],[-71.7955904,42.2666014],[-71.7957904,42.2676314],[-71.7939704,42.2674014],[-71.7935504,42.2673514],[-71.7933404,42.2673314],[-71.7931404,42.2673114],[-71.7931204,42.2675914],[-71.7931304,42.2678614],[-71.793144,42.268034],[-71.7931704,42.2683714],[-71.7932004,42.2687114],[-71.7932904,42.2690214],[-71.7933904,42.2692814],[-71.7935004,42.2695714],[-71.7935504,42.2697114],[-71.7937004,42.2700714],[-71.7941904,42.2709914],[-71.7946205,42.2718214],[-71.7947705,42.2718114],[-71.7948404,42.2718014],[-71.7950204,42.2717814],[-71.7952604,42.2717514],[-71.7966604,42.2715214],[-71.7968404,42.2705814],[-71.7969204,42.2702514],[-71.7970604,42.2699514],[-71.7970304,42.2697114],[-71.7983804,42.2696814],[-71.7986507,42.2705643],[-71.7986404,42.2707114],[-71.7986104,42.2710814],[-71.7986004,42.2712614],[-71.7988404,42.2712414],[-71.7988304,42.2713714],[-71.7994204,42.2713614],[-71.7996204,42.2713214],[-71.8000504,42.2702514],[-71.8002404,42.2696614],[-71.8003604,42.2692114],[-71.8003404,42.2690814],[-71.8006304,42.2678714],[-71.8008604,42.2670214],[-71.8009504,42.2666014],[-71.8010204,42.2663214],[-71.8024404,42.2659114],[-71.8033704,42.2661014],[-71.8041904,42.2650414],[-71.8043004,42.2647014],[-71.8043404,42.2642814],[-71.8044404,42.2636314],[-71.8021604,42.2634814],[-71.8022204,42.2633314],[-71.8025104,42.2626314],[-71.8026904,42.2623114],[-71.8034804,42.2611414],[-71.8043304,42.2602814],[-71.8045104,42.2601114],[-71.8047104,42.2599314],[-71.8051604,42.2596014],[-71.8059504,42.2590114],[-71.8064004,42.2587014],[-71.8065904,42.2585914],[-71.8073404,42.2581914],[-71.8070204,42.2579614],[-71.8066004,42.2575314],[-71.8060604,42.2569814],[-71.8066304,42.2565914],[-71.8078703,42.2556214],[-71.8090304,42.2564514],[-71.8097304,42.2569214],[-71.8104904,42.2565314],[-71.8109303,42.2562914],[-71.8116603,42.2559114],[-71.8098503,42.2542414],[-71.8089687,42.2534112],[-71.8088203,42.2532714],[-71.8086007,42.2530646],[-71.8079903,42.2526914],[-71.8079703,42.2528814],[-71.8078803,42.2531514],[-71.8076403,42.2528814],[-71.8074386,42.2522795],[-71.8074085,42.2522366],[-71.8072543,42.2520747],[-71.8072537,42.2520741],[-71.807238,42.2520498],[-71.8071937,42.2520047],[-71.806945,42.2518498],[-71.8068672,42.251809],[-71.8067187,42.2517355],[-71.8065637,42.2516556],[-71.8065347,42.2516389],[-71.8065134,42.2516009],[-71.8064921,42.2515629],[-71.8064341,42.2515413],[-71.8063007,42.2514917],[-71.8061466,42.2514481],[-71.8060559,42.2514301],[-71.8060439,42.2514277],[-71.8058421,42.2517496],[-71.8056403,42.2520714],[-71.8026803,42.2520814],[-71.8027103,42.2527114],[-71.8029903,42.2542314],[-71.8030303,42.2543414],[-71.8030903,42.2544214],[-71.8040303,42.2552514],[-71.8046703,42.2557414],[-71.8037104,42.2563214],[-71.8027204,42.2560814],[-71.8014004,42.2569214],[-71.8018704,42.2572514],[-71.8014604,42.2575114],[-71.8009904,42.2571914],[-71.7997104,42.2567114],[-71.7989104,42.2567014],[-71.7987004,42.2567014],[-71.7979804,42.2567314],[-71.7979804,42.2570314],[-71.7980204,42.2573714],[-71.7980704,42.2580814],[-71.7987704,42.2591514],[-71.7998404,42.2585014],[-71.7997804,42.2591514],[-71.7998304,42.2593914],[-71.7998704,42.2598214],[-71.7989804,42.2606014],[-71.7988104,42.2608714],[-71.7984504,42.2614214],[-71.7980904,42.2619314],[-71.7977404,42.2618614],[-71.7975404,42.2618414],[-71.7965654,42.2625464],[-71.7964698,42.2626134],[-71.7965804,42.2627714],[-71.7968104,42.2630614],[-71.7966904,42.2631414],[-71.7964604,42.2632414],[-71.7962504,42.2633114],[-71.7959404,42.2633914],[-71.7957304,42.2634214],[-71.7953604,42.2634714],[-71.7949704,42.2635014],[-71.7950004,42.2636714]]]}}]}